<?xml version="1.0" encoding="UTF-8"?>
<kml xmlns="http://www.opengis.net/kml/2.2"><Document>
<name>Second Creek Raceway (placed to OSM anchors)</name>
<Placemark><name>Second Creek Raceway</name>
<LineString><tessellate>1</tessellate><coordinates>-104.7904326,39.8572816,0 -104.7901315,39.8567224,0 -104.7895158,39.8565250,0 -104.7875316,39.8564592,0 -104.7850685,39.8564329,0 -104.7826054,39.8564132,0 -104.7809634,39.8564000,0 -104.7800055,39.8564066,0 -104.7793487,39.8565053,0 -104.7788561,39.8568737,0 -104.7785140,39.8574460,0 -104.7783771,39.8580381,0 -104.7784319,39.8586302,0 -104.7786371,39.8592223,0 -104.7790203,39.8597025,0 -104.7795676,39.8600249,0 -104.7801013,39.8601367,0 -104.7809634,39.8599920,0 -104.7818528,39.8597946,0 -104.7826602,39.8595907,0 -104.7832623,39.8593539,0 -104.7839054,39.8590578,0 -104.7837001,39.8585973,0 -104.7828107,39.8582684,0 -104.7823591,39.8580250,0 -104.7826328,39.8577289,0 -104.7837001,39.8575579,0 -104.7847948,39.8574000,0 -104.7858896,39.8572816,0 -104.7871211,39.8572355,0 -104.7882158,39.8572289,0 -104.7891737,39.8572618,0 -104.7899947,39.8572816,0 -104.7904326,39.8572816,0</coordinates></LineString></Placemark>
</Document></kml>
