{"type": "FeatureCollection", "features": [{"type": "Feature", "properties": {"name": "centerline", "kind": "full", "closed": true, "default_width_m": 10.0, "widths_m": [10.0, 10.0, 10.0, 10.0, 10.0, 10.0, 10.0, 10.0, 10.0, 10.0, 10.0, 10.0, 10.0, 10.0, 10.0, 10.0, 10.0, 10.0, 10.0, 10.0, 10.0, 10.0, 10.0, 10.0, 10.0, 10.0, 10.0, 10.0, 10.0, 10.0, 10.0, 10.0, 10.0, 10.0, 10.0, 10.0, 10.0, 10.0, 10.0, 10.0, 10.0, 10.0, 10.0, 10.0, 10.0, 10.0, 10.0, 10.0, 10.0, 10.0, 10.0, 10.0, 10.0, 10.0, 10.0, 10.0, 10.0, 10.0, 10.0, 10.0, 10.0, 10.0, 10.0, 10.0, 10.0, 10.0, 10.0, 10.0, 10.0, 10.0, 10.0, 10.0, 10.0, 10.0, 10.0, 10.0, 10.0, 10.0, 10.0, 10.0, 10.0, 10.0, 10.0, 10.0, 10.0, 10.0, 10.0, 10.0, 10.0, 10.0, 10.0, 10.0, 10.0, 10.0, 10.0, 10.0, 10.0, 10.0, 10.0, 10.0, 10.0, 10.0, 10.0, 10.0, 10.0, 10.0, 10.0, 10.0, 10.0, 10.0, 10.0, 10.0, 10.0, 10.0, 10.0, 10.0, 10.0, 10.0, 10.0, 10.0, 10.0, 10.0, 10.0, 10.0, 10.0, 10.0, 10.0, 10.0, 10.0, 10.0, 10.0, 10.0, 10.0, 10.0, 10.0, 10.0, 10.0, 10.0, 10.0, 10.0, 10.0, 10.0, 10.0, 10.0, 10.0, 10.0, 10.0, 10.0, 10.0, 10.0, 10.0, 10.0, 10.0, 10.0, 10.0, 10.0, 10.0, 10.0, 10.0, 10.0, 10.0, 10.0, 10.0, 10.0, 10.0, 10.0, 10.0, 10.0, 10.0, 10.0, 10.0, 10.0, 10.0, 10.0, 10.0, 10.0, 10.0, 10.0, 10.0, 10.0, 10.0, 10.0, 10.0, 10.0, 10.0, 10.0, 10.0, 10.0, 10.0, 10.0, 10.0, 10.0, 10.0, 10.0, 10.0, 10.0, 10.0, 10.0, 10.0, 10.0, 10.0, 10.0, 10.0, 10.0, 10.0, 10.0, 10.0, 10.0, 10.0, 10.0, 10.0, 10.0, 10.0, 10.0, 10.0, 10.0, 10.0, 10.0, 10.0, 10.0, 10.0, 10.0, 10.0, 10.0, 10.0, 10.0, 10.0, 10.0, 10.0, 10.0, 10.0, 10.0, 10.0, 10.0, 10.0, 10.0, 10.0, 10.0, 10.0, 10.0, 10.0, 10.0, 10.0, 10.0, 10.0, 10.0, 10.0, 10.0, 10.0, 10.0, 10.0, 10.0, 10.0, 10.0, 10.0, 10.0, 10.0, 10.0, 10.0, 10.0, 10.0, 10.0, 10.0, 10.0, 10.0, 10.0, 10.0, 10.0, 10.0, 10.0, 10.0, 10.0, 10.0, 10.0, 10.0, 10.0, 10.0, 10.0, 10.0, 10.0, 10.0, 10.0, 10.0, 10.0, 10.0, 10.0, 10.0, 10.0, 10.0, 10.0, 10.0, 10.0, 10.0, 10.0, 10.0, 10.0, 10.0, 10.0, 10.0, 10.0, 10.0, 10.0, 10.0, 10.0, 10.0, 10.0, 10.0, 10.0, 10.0, 10.0, 10.0, 10.0, 10.0, 10.0, 10.0, 10.0, 10.0, 10.0, 10.0, 10.0, 10.0, 10.0, 10.0, 10.0, 10.0, 10.0, 10.0, 10.0, 10.0, 10.0, 10.0, 10.0, 10.0, 10.0, 10.0, 10.0, 10.0, 10.0, 10.0, 10.0, 10.0, 10.0, 10.0, 10.0, 10.0, 10.0, 10.0, 10.0, 10.0, 10.0, 10.0, 10.0, 10.0, 10.0, 10.0, 10.0, 10.0, 10.0, 10.0, 10.0, 10.0, 10.0, 10.0, 10.0, 10.0, 10.0, 10.0, 10.0, 10.0, 10.0, 10.0, 10.0, 10.0, 10.0, 10.0, 10.0, 10.0, 10.0, 10.0, 10.0, 10.0, 10.0, 10.0, 10.0, 10.0, 10.0, 10.0, 10.0, 10.0, 10.0, 10.0, 10.0, 10.0, 10.0, 10.0, 10.0, 10.0, 10.0, 10.0, 10.0, 10.0, 10.0, 10.0, 10.0, 10.0, 10.0, 10.0, 10.0, 10.0, 10.0, 10.0, 10.0, 10.0, 10.0, 10.0, 10.0, 10.0, 10.0, 10.0, 10.0, 10.0, 10.0, 10.0, 10.0, 10.0, 10.0, 10.0, 10.0, 10.0, 10.0, 10.0, 10.0, 10.0, 10.0, 10.0, 10.0, 10.0, 10.0, 10.0, 10.0, 10.0, 10.0, 10.0, 10.0, 10.0, 10.0, 10.0, 10.0, 10.0, 10.0, 10.0, 10.0, 10.0, 10.0, 10.0, 10.0, 10.0, 10.0, 10.0, 10.0, 10.0, 10.0, 10.0, 10.0, 10.0, 10.0, 10.0, 10.0, 10.0, 10.0, 10.0, 10.0, 10.0, 10.0, 10.0, 10.0, 10.0, 10.0, 10.0, 10.0, 10.0, 10.0, 10.0, 10.0, 10.0, 10.0, 10.0, 10.0, 10.0, 10.0, 10.0, 10.0, 10.0, 10.0, 10.0, 10.0, 10.0, 10.0, 10.0, 10.0, 10.0, 10.0, 10.0, 10.0, 10.0, 10.0, 10.0, 10.0, 10.0, 10.0, 10.0, 10.0, 10.0, 10.0, 10.0, 10.0, 10.0, 10.0, 10.0, 10.0, 10.0, 10.0, 10.0, 10.0, 10.0, 10.0, 10.0, 10.0, 10.0, 10.0, 10.0, 10.0, 10.0, 10.0, 10.0, 10.0, 10.0, 10.0, 10.0, 10.0, 10.0, 10.0, 10.0, 10.0, 10.0, 10.0, 10.0, 10.0, 10.0, 10.0, 10.0, 10.0, 10.0, 10.0, 10.0, 10.0, 10.0, 10.0, 10.0, 10.0, 10.0, 10.0, 10.0, 10.0, 10.0, 10.0, 10.0, 10.0, 10.0, 10.0, 10.0, 10.0, 10.0, 10.0, 10.0, 10.0, 10.0, 10.0, 10.0, 10.0, 10.0, 10.0, 10.0, 10.0, 10.0, 10.0, 10.0, 10.0, 10.0, 10.0, 10.0, 10.0, 10.0, 10.0, 10.0, 10.0, 10.0, 10.0, 10.0, 10.0, 10.0, 10.0, 10.0, 10.0, 10.0, 10.0, 10.0, 10.0, 10.0, 10.0, 10.0, 10.0, 10.0, 10.0, 10.0, 10.0, 10.0, 10.0, 10.0, 10.0, 10.0, 10.0, 10.0, 10.0, 10.0, 10.0, 10.0, 10.0, 10.0, 10.0, 10.0, 10.0, 10.0, 10.0, 10.0, 10.0, 10.0, 10.0, 10.0, 10.0, 10.0, 10.0, 10.0, 10.0, 10.0, 10.0, 10.0, 10.0, 10.0, 10.0, 10.0, 10.0, 10.0, 10.0, 10.0, 10.0, 10.0, 10.0, 10.0, 10.0, 10.0, 10.0, 10.0, 10.0, 10.0, 10.0, 10.0, 10.0, 10.0, 10.0, 10.0, 10.0, 10.0, 10.0, 10.0, 10.0, 10.0, 10.0, 10.0, 10.0, 10.0, 10.0, 10.0, 10.0, 10.0, 10.0, 10.0, 10.0, 10.0, 10.0, 10.0, 10.0, 10.0, 10.0, 10.0, 10.0, 10.0, 10.0, 10.0, 10.0, 10.0, 10.0, 10.0, 10.0, 10.0, 10.0, 10.0, 10.0, 10.0, 10.0, 10.0, 10.0, 10.0, 10.0, 10.0, 10.0, 10.0, 10.0, 10.0, 10.0, 10.0, 10.0, 10.0, 10.0, 10.0, 10.0, 10.0, 10.0, 10.0, 10.0, 10.0, 10.0, 10.0, 10.0, 10.0, 10.0, 10.0, 10.0, 10.0, 10.0, 10.0, 10.0, 10.0, 10.0, 10.0, 10.0, 10.0, 10.0, 10.0, 10.0, 10.0, 10.0, 10.0, 10.0, 10.0, 10.0, 10.0, 10.0, 10.0, 10.0, 10.0, 10.0, 10.0, 10.0, 10.0, 10.0, 10.0, 10.0, 10.0, 10.0, 10.0, 10.0, 10.0, 10.0, 10.0, 10.0, 10.0, 10.0, 10.0, 10.0, 10.0, 10.0, 10.0, 10.0, 10.0, 10.0, 10.0, 10.0, 10.0, 10.0, 10.0, 10.0, 10.0, 10.0, 10.0, 10.0, 10.0, 10.0, 10.0, 10.0, 10.0, 10.0, 10.0, 10.0, 10.0, 10.0, 10.0, 10.0, 10.0, 10.0, 10.0, 10.0, 10.0, 10.0, 10.0, 10.0, 10.0, 10.0, 10.0, 10.0, 10.0, 10.0, 10.0, 10.0, 10.0, 10.0, 10.0, 10.0, 10.0, 10.0, 10.0, 10.0, 10.0, 10.0, 10.0, 10.0, 10.0, 10.0, 10.0, 10.0, 10.0, 10.0, 10.0, 10.0, 10.0, 10.0, 10.0, 10.0, 10.0, 10.0, 10.0, 10.0, 10.0, 10.0, 10.0, 10.0, 10.0, 10.0, 10.0, 10.0, 10.0, 10.0, 10.0, 10.0, 10.0, 10.0, 10.0, 10.0, 10.0, 10.0, 10.0, 10.0, 10.0, 10.0, 10.0, 10.0, 10.0, 10.0, 10.0, 10.0, 10.0, 10.0, 10.0, 10.0, 10.0, 10.0, 10.0, 10.0, 10.0, 10.0, 10.0, 10.0, 10.0, 10.0, 10.0, 10.0, 10.0, 10.0, 10.0, 10.0, 10.0, 10.0, 10.0, 10.0, 10.0, 10.0, 10.0, 10.0, 10.0, 10.0, 10.0, 10.0, 10.0, 10.0], "length_m": 2734.5, "point_count": 914, "placed": "translated 2026-07-27 to OSM anchors (Buckley Rd, E 88th Ave); shape and length unchanged"}, "geometry": {"type": "LineString", "coordinates": [[-104.7904326, 39.8572816], [-104.7904191, 39.8572566], [-104.7904057, 39.8572317], [-104.7903923, 39.8572068], [-104.7903789, 39.8571818], [-104.7903654, 39.8571569], [-104.790352, 39.857132], [-104.7903386, 39.857107], [-104.7903252, 39.8570821], [-104.7903117, 39.8570572], [-104.7902983, 39.8570322], [-104.7902849, 39.8570073], [-104.7902715, 39.8569824], [-104.790258, 39.8569574], [-104.7902446, 39.8569325], [-104.7902312, 39.8569076], [-104.7902178, 39.8568826], [-104.7902043, 39.8568577], [-104.7901909, 39.8568328], [-104.7901775, 39.8568078], [-104.7901641, 39.8567829], [-104.7901506, 39.856758], [-104.7901372, 39.856733], [-104.7901129, 39.8567164], [-104.7900805, 39.856706], [-104.790048, 39.8566956], [-104.7900156, 39.8566852], [-104.7899832, 39.8566748], [-104.7899507, 39.8566644], [-104.7899183, 39.856654], [-104.7898859, 39.8566436], [-104.7898535, 39.8566332], [-104.789821, 39.8566228], [-104.7897886, 39.8566124], [-104.7897562, 39.856602], [-104.7897237, 39.8565916], [-104.7896913, 39.8565812], [-104.7896589, 39.8565708], [-104.7896264, 39.8565604], [-104.789594, 39.85655], [-104.7895616, 39.8565396], [-104.7895292, 39.8565293], [-104.7894951, 39.8565243], [-104.78946, 39.8565231], [-104.7894249, 39.8565219], [-104.7893898, 39.8565208], [-104.7893547, 39.8565196], [-104.7893196, 39.8565185], [-104.7892845, 39.8565173], [-104.7892494, 39.8565161], [-104.7892143, 39.856515], [-104.7891791, 39.8565138], [-104.789144, 39.8565126], [-104.7891089, 39.8565115], [-104.7890738, 39.8565103], [-104.7890387, 39.8565091], [-104.7890036, 39.856508], [-104.7889685, 39.8565068], [-104.7889334, 39.8565056], [-104.7888982, 39.8565045], [-104.7888631, 39.8565033], [-104.788828, 39.8565022], [-104.7887929, 39.856501], [-104.7887578, 39.8564998], [-104.7887227, 39.8564987], [-104.7886876, 39.8564975], [-104.7886525, 39.8564963], [-104.7886173, 39.8564952], [-104.7885822, 39.856494], [-104.7885471, 39.8564928], [-104.788512, 39.8564917], [-104.7884769, 39.8564905], [-104.7884418, 39.8564893], [-104.7884067, 39.8564882], [-104.7883716, 39.856487], [-104.7883364, 39.8564858], [-104.7883013, 39.8564847], [-104.7882662, 39.8564835], [-104.7882311, 39.8564824], [-104.788196, 39.8564812], [-104.7881609, 39.85648], [-104.7881258, 39.8564789], [-104.7880907, 39.8564777], [-104.7880556, 39.8564765], [-104.7880204, 39.8564754], [-104.7879853, 39.8564742], [-104.7879502, 39.856473], [-104.7879151, 39.8564719], [-104.78788, 39.8564707], [-104.7878449, 39.8564695], [-104.7878098, 39.8564684], [-104.7877747, 39.8564672], [-104.7877395, 39.8564661], [-104.7877044, 39.8564649], [-104.7876693, 39.8564637], [-104.7876342, 39.8564626], [-104.7875991, 39.8564614], [-104.787564, 39.8564602], [-104.7875289, 39.8564591], [-104.7874937, 39.8564588], [-104.7874586, 39.8564584], [-104.7874234, 39.856458], [-104.7873883, 39.8564576], [-104.7873532, 39.8564573], [-104.787318, 39.8564569], [-104.7872829, 39.8564565], [-104.7872477, 39.8564561], [-104.7872126, 39.8564558], [-104.7871775, 39.8564554], [-104.7871423, 39.856455], [-104.7871072, 39.8564546], [-104.787072, 39.8564543], [-104.7870369, 39.8564539], [-104.7870017, 39.8564535], [-104.7869666, 39.8564531], [-104.7869315, 39.8564528], [-104.7868963, 39.8564524], [-104.7868612, 39.856452], [-104.786826, 39.8564516], [-104.7867909, 39.8564512], [-104.7867558, 39.8564509], [-104.7867206, 39.8564505], [-104.7866855, 39.8564501], [-104.7866503, 39.8564497], [-104.7866152, 39.8564494], [-104.78658, 39.856449], [-104.7865449, 39.8564486], [-104.7865098, 39.8564482], [-104.7864746, 39.8564479], [-104.7864395, 39.8564475], [-104.7864043, 39.8564471], [-104.7863692, 39.8564467], [-104.7863341, 39.8564464], [-104.7862989, 39.856446], [-104.7862638, 39.8564456], [-104.7862286, 39.8564452], [-104.7861935, 39.8564449], [-104.7861583, 39.8564445], [-104.7861232, 39.8564441], [-104.7860881, 39.8564437], [-104.7860529, 39.8564434], [-104.7860178, 39.856443], [-104.7859826, 39.8564426], [-104.7859475, 39.8564422], [-104.7859124, 39.8564419], [-104.7858772, 39.8564415], [-104.7858421, 39.8564411], [-104.7858069, 39.8564407], [-104.7857718, 39.8564404], [-104.7857366, 39.85644], [-104.7857015, 39.8564396], [-104.7856664, 39.8564392], [-104.7856312, 39.8564389], [-104.7855961, 39.8564385], [-104.7855609, 39.8564381], [-104.7855258, 39.8564377], [-104.7854907, 39.8564374], [-104.7854555, 39.856437], [-104.7854204, 39.8564366], [-104.7853852, 39.8564362], [-104.7853501, 39.8564359], [-104.785315, 39.8564355], [-104.7852798, 39.8564351], [-104.7852447, 39.8564347], [-104.7852095, 39.8564344], [-104.7851744, 39.856434], [-104.7851392, 39.8564336], [-104.7851041, 39.8564332], [-104.785069, 39.8564329], [-104.7850338, 39.8564326], [-104.7849987, 39.8564323], [-104.7849635, 39.856432], [-104.7849284, 39.8564317], [-104.7848932, 39.8564315], [-104.7848581, 39.8564312], [-104.784823, 39.8564309], [-104.7847878, 39.8564306], [-104.7847527, 39.8564303], [-104.7847175, 39.8564301], [-104.7846824, 39.8564298], [-104.7846472, 39.8564295], [-104.7846121, 39.8564292], [-104.784577, 39.8564289], [-104.7845418, 39.8564286], [-104.7845067, 39.8564284], [-104.7844715, 39.8564281], [-104.7844364, 39.8564278], [-104.7844012, 39.8564275], [-104.7843661, 39.8564272], [-104.784331, 39.856427], [-104.7842958, 39.8564267], [-104.7842607, 39.8564264], [-104.7842255, 39.8564261], [-104.7841904, 39.8564258], [-104.7841552, 39.8564256], [-104.7841201, 39.8564253], [-104.784085, 39.856425], [-104.7840498, 39.8564247], [-104.7840147, 39.8564244], [-104.7839795, 39.8564241], [-104.7839444, 39.8564239], [-104.7839092, 39.8564236], [-104.7838741, 39.8564233], [-104.783839, 39.856423], [-104.7838038, 39.8564227], [-104.7837687, 39.8564225], [-104.7837335, 39.8564222], [-104.7836984, 39.8564219], [-104.7836632, 39.8564216], [-104.7836281, 39.8564213], [-104.783593, 39.8564211], [-104.7835578, 39.8564208], [-104.7835227, 39.8564205], [-104.7834875, 39.8564202], [-104.7834524, 39.8564199], [-104.7834172, 39.8564197], [-104.7833821, 39.8564194], [-104.783347, 39.8564191], [-104.7833118, 39.8564188], [-104.7832767, 39.8564185], [-104.7832415, 39.8564182], [-104.7832064, 39.856418], [-104.7831712, 39.8564177], [-104.7831361, 39.8564174], [-104.783101, 39.8564171], [-104.7830658, 39.8564168], [-104.7830307, 39.8564166], [-104.7829955, 39.8564163], [-104.7829604, 39.856416], [-104.7829252, 39.8564157], [-104.7828901, 39.8564154], [-104.782855, 39.8564152], [-104.7828198, 39.8564149], [-104.7827847, 39.8564146], [-104.7827495, 39.8564143], [-104.7827144, 39.856414], [-104.7826792, 39.8564137], [-104.7826441, 39.8564135], [-104.782609, 39.8564132], [-104.7825738, 39.8564129], [-104.7825387, 39.8564126], [-104.7825035, 39.8564123], [-104.7824684, 39.8564121], [-104.7824332, 39.8564118], [-104.7823981, 39.8564115], [-104.782363, 39.8564112], [-104.7823278, 39.8564109], [-104.7822927, 39.8564106], [-104.7822575, 39.8564104], [-104.7822224, 39.8564101], [-104.7821872, 39.8564098], [-104.7821521, 39.8564095], [-104.782117, 39.8564092], [-104.7820818, 39.8564089], [-104.7820467, 39.8564087], [-104.7820115, 39.8564084], [-104.7819764, 39.8564081], [-104.7819412, 39.8564078], [-104.7819061, 39.8564075], [-104.781871, 39.8564073], [-104.7818358, 39.856407], [-104.7818007, 39.8564067], [-104.7817655, 39.8564064], [-104.7817304, 39.8564061], [-104.7816952, 39.8564058], [-104.7816601, 39.8564056], [-104.781625, 39.8564053], [-104.7815898, 39.856405], [-104.7815547, 39.8564047], [-104.7815195, 39.8564044], [-104.7814844, 39.8564041], [-104.7814492, 39.8564039], [-104.7814141, 39.8564036], [-104.781379, 39.8564033], [-104.7813438, 39.856403], [-104.7813087, 39.8564027], [-104.7812735, 39.8564025], [-104.7812384, 39.8564022], [-104.7812032, 39.8564019], [-104.7811681, 39.8564016], [-104.781133, 39.8564013], [-104.7810978, 39.856401], [-104.7810627, 39.8564008], [-104.7810275, 39.8564005], [-104.7809924, 39.8564002], [-104.7809572, 39.8564], [-104.7809221, 39.8564002], [-104.7808869, 39.8564005], [-104.7808518, 39.8564007], [-104.7808167, 39.856401], [-104.7807815, 39.8564012], [-104.7807464, 39.8564015], [-104.7807112, 39.8564017], [-104.7806761, 39.8564019], [-104.7806409, 39.8564022], [-104.7806058, 39.8564024], [-104.7805707, 39.8564027], [-104.7805355, 39.8564029], [-104.7805004, 39.8564031], [-104.7804652, 39.8564034], [-104.7804301, 39.8564036], [-104.7803949, 39.8564039], [-104.7803598, 39.8564041], [-104.7803247, 39.8564044], [-104.7802895, 39.8564046], [-104.7802544, 39.8564048], [-104.7802192, 39.8564051], [-104.7801841, 39.8564053], [-104.7801489, 39.8564056], [-104.7801138, 39.8564058], [-104.7800786, 39.8564061], [-104.7800435, 39.8564063], [-104.7800084, 39.8564065], [-104.7799738, 39.8564113], [-104.7799393, 39.8564165], [-104.7799048, 39.8564217], [-104.7798703, 39.8564269], [-104.7798359, 39.856432], [-104.7798014, 39.8564372], [-104.7797669, 39.8564424], [-104.7797324, 39.8564476], [-104.7796979, 39.8564528], [-104.7796634, 39.856458], [-104.7796289, 39.8564631], [-104.7795944, 39.8564683], [-104.7795599, 39.8564735], [-104.7795254, 39.8564787], [-104.779491, 39.8564839], [-104.7794565, 39.8564891], [-104.779422, 39.8564942], [-104.7793875, 39.8564994], [-104.779353, 39.8565046], [-104.7793266, 39.8565217], [-104.7793015, 39.8565405], [-104.7792763, 39.8565594], [-104.7792511, 39.8565782], [-104.779226, 39.856597], [-104.7792008, 39.8566159], [-104.7791756, 39.8566347], [-104.7791504, 39.8566535], [-104.7791253, 39.8566723], [-104.7791001, 39.8566912], [-104.7790749, 39.85671], [-104.7790497, 39.8567288], [-104.7790246, 39.8567476], [-104.7789994, 39.8567665], [-104.7789742, 39.8567853], [-104.778949, 39.8568041], [-104.7789239, 39.8568229], [-104.7788987, 39.8568418], [-104.7788735, 39.8568606], [-104.7788516, 39.8568812], [-104.7788369, 39.8569057], [-104.7788223, 39.8569302], [-104.7788076, 39.8569547], [-104.7787929, 39.8569793], [-104.7787783, 39.8570038], [-104.7787636, 39.8570283], [-104.778749, 39.8570528], [-104.7787343, 39.8570773], [-104.7787196, 39.8571019], [-104.778705, 39.8571264], [-104.7786903, 39.8571509], [-104.7786757, 39.8571754], [-104.778661, 39.8571999], [-104.7786464, 39.8572245], [-104.7786317, 39.857249], [-104.778617, 39.8572735], [-104.7786024, 39.857298], [-104.7785877, 39.8573226], [-104.7785731, 39.8573471], [-104.7785584, 39.8573716], [-104.7785438, 39.8573961], [-104.7785291, 39.8574206], [-104.7785144, 39.8574452], [-104.778508, 39.8574717], [-104.7785019, 39.8574982], [-104.7784957, 39.8575248], [-104.7784896, 39.8575514], [-104.7784835, 39.8575779], [-104.7784773, 39.8576045], [-104.7784712, 39.857631], [-104.778465, 39.8576576], [-104.7784589, 39.8576842], [-104.7784527, 39.8577107], [-104.7784466, 39.8577373], [-104.7784405, 39.8577639], [-104.7784343, 39.8577904], [-104.7784282, 39.857817], [-104.778422, 39.8578436], [-104.7784159, 39.8578701], [-104.7784097, 39.8578967], [-104.7784036, 39.8579233], [-104.7783975, 39.8579498], [-104.7783913, 39.8579764], [-104.7783852, 39.8580029], [-104.778379, 39.8580295], [-104.7783788, 39.8580563], [-104.7783812, 39.8580832], [-104.7783837, 39.8581101], [-104.7783862, 39.858137], [-104.7783887, 39.858164], [-104.7783912, 39.8581909], [-104.7783937, 39.8582178], [-104.7783962, 39.8582447], [-104.7783987, 39.8582716], [-104.7784012, 39.8582985], [-104.7784037, 39.8583254], [-104.7784061, 39.8583523], [-104.7784086, 39.8583793], [-104.7784111, 39.8584062], [-104.7784136, 39.8584331], [-104.7784161, 39.85846], [-104.7784186, 39.8584869], [-104.7784211, 39.8585138], [-104.7784236, 39.8585407], [-104.7784261, 39.8585676], [-104.7784286, 39.8585945], [-104.7784311, 39.8586215], [-104.778438, 39.8586478], [-104.778447, 39.8586739], [-104.778456, 39.8586999], [-104.7784651, 39.858726], [-104.7784741, 39.8587521], [-104.7784832, 39.8587782], [-104.7784922, 39.8588042], [-104.7785012, 39.8588303], [-104.7785103, 39.8588564], [-104.7785193, 39.8588825], [-104.7785283, 39.8589085], [-104.7785374, 39.8589346], [-104.7785464, 39.8589607], [-104.7785554, 39.8589867], [-104.7785645, 39.8590128], [-104.7785735, 39.8590389], [-104.7785826, 39.859065], [-104.7785916, 39.859091], [-104.7786006, 39.8591171], [-104.7786097, 39.8591432], [-104.7786187, 39.8591693], [-104.7786277, 39.8591953], [-104.7786368, 39.8592214], [-104.7786548, 39.8592445], [-104.7786732, 39.8592675], [-104.7786915, 39.8592905], [-104.7787099, 39.8593135], [-104.7787283, 39.8593365], [-104.7787466, 39.8593595], [-104.778765, 39.8593825], [-104.7787833, 39.8594056], [-104.7788017, 39.8594286], [-104.7788201, 39.8594516], [-104.7788384, 39.8594746], [-104.7788568, 39.8594976], [-104.7788751, 39.8595206], [-104.7788935, 39.8595436], [-104.7789118, 39.8595666], [-104.7789302, 39.8595896], [-104.7789486, 39.8596126], [-104.7789669, 39.8596356], [-104.7789853, 39.8596586], [-104.7790036, 39.8596816], [-104.7790229, 39.859704], [-104.7790508, 39.8597204], [-104.7790787, 39.8597369], [-104.7791066, 39.8597533], [-104.7791344, 39.8597697], [-104.7791623, 39.8597861], [-104.7791902, 39.8598026], [-104.7792181, 39.859819], [-104.779246, 39.8598354], [-104.7792738, 39.8598518], [-104.7793017, 39.8598683], [-104.7793296, 39.8598847], [-104.7793575, 39.8599011], [-104.7793854, 39.8599175], [-104.7794133, 39.859934], [-104.7794411, 39.8599504], [-104.779469, 39.8599668], [-104.7794969, 39.8599832], [-104.7795248, 39.8599997], [-104.7795527, 39.8600161], [-104.7795834, 39.8600282], [-104.7796173, 39.8600353], [-104.7796512, 39.8600424], [-104.7796851, 39.8600495], [-104.779719, 39.8600566], [-104.7797529, 39.8600637], [-104.7797868, 39.8600708], [-104.7798207, 39.8600779], [-104.7798546, 39.860085], [-104.7798885, 39.8600921], [-104.7799224, 39.8600992], [-104.7799563, 39.8601063], [-104.7799902, 39.8601134], [-104.7800242, 39.8601205], [-104.7800581, 39.8601276], [-104.780092, 39.8601347], [-104.7801262, 39.8601325], [-104.7801605, 39.8601267], [-104.7801949, 39.8601209], [-104.7802292, 39.8601152], [-104.7802635, 39.8601094], [-104.7802979, 39.8601037], [-104.7803322, 39.8600979], [-104.7803665, 39.8600921], [-104.7804009, 39.8600864], [-104.7804352, 39.8600806], [-104.7804695, 39.8600748], [-104.7805039, 39.8600691], [-104.7805382, 39.8600633], [-104.7805725, 39.8600576], [-104.7806069, 39.8600518], [-104.7806412, 39.860046], [-104.7806756, 39.8600403], [-104.7807099, 39.8600345], [-104.7807442, 39.8600287], [-104.7807786, 39.860023], [-104.7808129, 39.8600172], [-104.7808472, 39.8600114], [-104.7808816, 39.8600057], [-104.7809159, 39.8599999], [-104.7809502, 39.8599942], [-104.7809842, 39.8599873], [-104.781018, 39.8599798], [-104.7810518, 39.8599723], [-104.7810855, 39.8599648], [-104.7811193, 39.8599574], [-104.781153, 39.8599499], [-104.7811868, 39.8599424], [-104.7812206, 39.8599349], [-104.7812543, 39.8599274], [-104.7812881, 39.8599199], [-104.7813219, 39.8599124], [-104.7813556, 39.8599049], [-104.7813894, 39.8598974], [-104.7814232, 39.8598899], [-104.7814569, 39.8598824], [-104.7814907, 39.8598749], [-104.7815244, 39.8598674], [-104.7815582, 39.8598599], [-104.781592, 39.8598524], [-104.7816257, 39.8598449], [-104.7816595, 39.8598375], [-104.7816933, 39.85983], [-104.781727, 39.8598225], [-104.7817608, 39.859815], [-104.7817946, 39.8598075], [-104.7818283, 39.8598], [-104.781862, 39.8597922], [-104.7818954, 39.8597838], [-104.7819287, 39.8597754], [-104.7819621, 39.8597669], [-104.7819955, 39.8597585], [-104.7820289, 39.8597501], [-104.7820623, 39.8597416], [-104.7820957, 39.8597332], [-104.7821291, 39.8597248], [-104.7821625, 39.8597163], [-104.7821958, 39.8597079], [-104.7822292, 39.8596995], [-104.7822626, 39.8596911], [-104.782296, 39.8596826], [-104.7823294, 39.8596742], [-104.7823628, 39.8596658], [-104.7823962, 39.8596573], [-104.7824295, 39.8596489], [-104.7824629, 39.8596405], [-104.7824963, 39.859632], [-104.7825297, 39.8596236], [-104.7825631, 39.8596152], [-104.7825965, 39.8596067], [-104.7826299, 39.8595983], [-104.782663, 39.8595895], [-104.7826943, 39.8595772], [-104.7827256, 39.8595649], [-104.7827569, 39.8595526], [-104.7827882, 39.8595403], [-104.7828194, 39.859528], [-104.7828507, 39.8595157], [-104.782882, 39.8595034], [-104.7829133, 39.8594911], [-104.7829446, 39.8594788], [-104.7829758, 39.8594665], [-104.7830071, 39.8594542], [-104.7830384, 39.8594419], [-104.7830697, 39.8594296], [-104.783101, 39.8594173], [-104.7831322, 39.859405], [-104.7831635, 39.8593927], [-104.7831948, 39.8593804], [-104.7832261, 39.8593681], [-104.7832574, 39.8593558], [-104.7832877, 39.8593422], [-104.7833178, 39.8593283], [-104.783348, 39.8593144], [-104.7833781, 39.8593005], [-104.7834082, 39.8592866], [-104.7834384, 39.8592728], [-104.7834685, 39.8592589], [-104.7834987, 39.859245], [-104.7835288, 39.8592311], [-104.783559, 39.8592173], [-104.7835891, 39.8592034], [-104.7836192, 39.8591895], [-104.7836494, 39.8591756], [-104.7836795, 39.8591617], [-104.7837097, 39.8591479], [-104.7837398, 39.859134], [-104.7837699, 39.8591201], [-104.7838001, 39.8591062], [-104.7838302, 39.8590924], [-104.7838604, 39.8590785], [-104.7838905, 39.8590646], [-104.7838996, 39.8590448], [-104.7838882, 39.8590193], [-104.7838768, 39.8589938], [-104.7838655, 39.8589682], [-104.7838541, 39.8589427], [-104.7838427, 39.8589172], [-104.7838313, 39.8588917], [-104.7838199, 39.8588661], [-104.7838086, 39.8588406], [-104.7837972, 39.8588151], [-104.7837858, 39.8587896], [-104.7837744, 39.858764], [-104.783763, 39.8587385], [-104.7837517, 39.858713], [-104.7837403, 39.8586875], [-104.7837289, 39.8586619], [-104.7837175, 39.8586364], [-104.7837061, 39.8586109], [-104.7836853, 39.8585918], [-104.7836536, 39.8585801], [-104.783622, 39.8585684], [-104.7835903, 39.8585567], [-104.7835586, 39.858545], [-104.783527, 39.8585332], [-104.7834953, 39.8585215], [-104.7834636, 39.8585098], [-104.783432, 39.8584981], [-104.7834003, 39.8584864], [-104.7833687, 39.8584747], [-104.783337, 39.858463], [-104.7833053, 39.8584513], [-104.7832737, 39.8584396], [-104.783242, 39.8584279], [-104.7832103, 39.8584162], [-104.7831787, 39.8584044], [-104.783147, 39.8583927], [-104.7831153, 39.858381], [-104.7830837, 39.8583693], [-104.783052, 39.8583576], [-104.7830204, 39.8583459], [-104.7829887, 39.8583342], [-104.782957, 39.8583225], [-104.7829254, 39.8583108], [-104.7828937, 39.8582991], [-104.782862, 39.8582874], [-104.7828304, 39.8582756], [-104.7827998, 39.8582625], [-104.782771, 39.858247], [-104.7827423, 39.8582315], [-104.7827135, 39.858216], [-104.7826848, 39.8582005], [-104.782656, 39.858185], [-104.7826272, 39.8581695], [-104.7825985, 39.858154], [-104.7825697, 39.8581385], [-104.7825409, 39.858123], [-104.7825122, 39.8581075], [-104.7824834, 39.858092], [-104.7824546, 39.8580765], [-104.7824259, 39.858061], [-104.7823971, 39.8580455], [-104.7823683, 39.85803], [-104.7823728, 39.8580101], [-104.7823932, 39.8579881], [-104.7824135, 39.8579661], [-104.7824338, 39.8579441], [-104.7824542, 39.857922], [-104.7824745, 39.8579], [-104.7824949, 39.857878], [-104.7825152, 39.857856], [-104.7825355, 39.857834], [-104.7825559, 39.857812], [-104.7825762, 39.85779], [-104.7825966, 39.857768], [-104.7826169, 39.857746], [-104.7826403, 39.8577276], [-104.7826747, 39.8577221], [-104.7827091, 39.8577166], [-104.7827435, 39.8577111], [-104.7827779, 39.8577056], [-104.7828123, 39.8577001], [-104.7828468, 39.8576946], [-104.7828812, 39.8576891], [-104.7829156, 39.8576835], [-104.78295, 39.857678], [-104.7829844, 39.8576725], [-104.7830188, 39.857667], [-104.7830532, 39.8576615], [-104.7830876, 39.857656], [-104.783122, 39.8576505], [-104.7831564, 39.857645], [-104.7831908, 39.8576395], [-104.7832252, 39.8576339], [-104.7832596, 39.8576284], [-104.783294, 39.8576229], [-104.7833284, 39.8576174], [-104.7833628, 39.8576119], [-104.7833972, 39.8576064], [-104.7834316, 39.8576009], [-104.783466, 39.8575954], [-104.7835004, 39.8575898], [-104.7835348, 39.8575843], [-104.7835692, 39.8575788], [-104.7836036, 39.8575733], [-104.783638, 39.8575678], [-104.7836725, 39.8575623], [-104.7837069, 39.8575569], [-104.7837414, 39.8575519], [-104.783776, 39.8575469], [-104.7838105, 39.8575419], [-104.783845, 39.8575369], [-104.7838796, 39.857532], [-104.7839141, 39.857527], [-104.7839487, 39.857522], [-104.7839832, 39.857517], [-104.7840178, 39.857512], [-104.7840523, 39.8575071], [-104.7840868, 39.8575021], [-104.7841214, 39.8574971], [-104.7841559, 39.8574921], [-104.7841905, 39.8574871], [-104.784225, 39.8574821], [-104.7842595, 39.8574772], [-104.7842941, 39.8574722], [-104.7843286, 39.8574672], [-104.7843632, 39.8574622], [-104.7843977, 39.8574572], [-104.7844322, 39.8574522], [-104.7844668, 39.8574473], [-104.7845013, 39.8574423], [-104.7845359, 39.8574373], [-104.7845704, 39.8574323], [-104.7846049, 39.8574273], [-104.7846395, 39.8574224], [-104.784674, 39.8574174], [-104.7847086, 39.8574124], [-104.7847431, 39.8574074], [-104.7847777, 39.8574024], [-104.7848123, 39.8573981], [-104.7848471, 39.8573943], [-104.7848819, 39.8573905], [-104.7849167, 39.8573868], [-104.7849515, 39.857383], [-104.7849863, 39.8573792], [-104.7850211, 39.8573755], [-104.7850559, 39.8573717], [-104.7850907, 39.8573679], [-104.7851255, 39.8573642], [-104.7851603, 39.8573604], [-104.7851951, 39.8573567], [-104.7852299, 39.8573529], [-104.7852647, 39.8573491], [-104.7852995, 39.8573454], [-104.7853343, 39.8573416], [-104.7853692, 39.8573378], [-104.785404, 39.8573341], [-104.7854388, 39.8573303], [-104.7854736, 39.8573265], [-104.7855084, 39.8573228], [-104.7855432, 39.857319], [-104.785578, 39.8573153], [-104.7856128, 39.8573115], [-104.7856476, 39.8573077], [-104.7856824, 39.857304], [-104.7857172, 39.8573002], [-104.785752, 39.8572964], [-104.7857868, 39.8572927], [-104.7858216, 39.8572889], [-104.7858564, 39.8572851], [-104.7858912, 39.8572815], [-104.7859263, 39.8572802], [-104.7859614, 39.8572789], [-104.7859965, 39.8572776], [-104.7860316, 39.8572762], [-104.7860667, 39.8572749], [-104.7861018, 39.8572736], [-104.7861369, 39.8572723], [-104.786172, 39.857271], [-104.7862071, 39.8572697], [-104.7862422, 39.8572684], [-104.7862773, 39.857267], [-104.7863124, 39.8572657], [-104.7863475, 39.8572644], [-104.7863826, 39.8572631], [-104.7864177, 39.8572618], [-104.7864528, 39.8572605], [-104.786488, 39.8572592], [-104.7865231, 39.8572578], [-104.7865582, 39.8572565], [-104.7865933, 39.8572552], [-104.7866284, 39.8572539], [-104.7866635, 39.8572526], [-104.7866986, 39.8572513], [-104.7867337, 39.85725], [-104.7867688, 39.8572486], [-104.7868039, 39.8572473], [-104.786839, 39.857246], [-104.7868741, 39.8572447], [-104.7869092, 39.8572434], [-104.7869443, 39.8572421], [-104.7869794, 39.8572408], [-104.7870145, 39.8572394], [-104.7870496, 39.8572381], [-104.7870847, 39.8572368], [-104.7871198, 39.8572355], [-104.787155, 39.8572353], [-104.7871901, 39.857235], [-104.7872252, 39.8572348], [-104.7872604, 39.8572346], [-104.7872955, 39.8572344], [-104.7873307, 39.8572342], [-104.7873658, 39.857234], [-104.787401, 39.8572338], [-104.7874361, 39.8572336], [-104.7874713, 39.8572333], [-104.7875064, 39.8572331], [-104.7875415, 39.8572329], [-104.7875767, 39.8572327], [-104.7876118, 39.8572325], [-104.787647, 39.8572323], [-104.7876821, 39.8572321], [-104.7877173, 39.8572319], [-104.7877524, 39.8572317], [-104.7877876, 39.8572314], [-104.7878227, 39.8572312], [-104.7878578, 39.857231], [-104.787893, 39.8572308], [-104.7879281, 39.8572306], [-104.7879633, 39.8572304], [-104.7879984, 39.8572302], [-104.7880336, 39.85723], [-104.7880687, 39.8572297], [-104.7881039, 39.8572295], [-104.788139, 39.8572293], [-104.7881741, 39.8572291], [-104.7882093, 39.8572289], [-104.7882444, 39.8572298], [-104.7882795, 39.857231], [-104.7883146, 39.8572323], [-104.7883497, 39.8572335], [-104.7883848, 39.8572347], [-104.78842, 39.8572359], [-104.7884551, 39.8572371], [-104.7884902, 39.8572383], [-104.7885253, 39.8572395], [-104.7885604, 39.8572407], [-104.7885955, 39.8572419], [-104.7886306, 39.8572431], [-104.7886657, 39.8572443], [-104.7887008, 39.8572455], [-104.7887359, 39.8572467], [-104.7887711, 39.8572479], [-104.7888062, 39.8572491], [-104.7888413, 39.8572503], [-104.7888764, 39.8572515], [-104.7889115, 39.8572528], [-104.7889466, 39.857254], [-104.7889817, 39.8572552], [-104.7890168, 39.8572564], [-104.7890519, 39.8572576], [-104.789087, 39.8572588], [-104.7891222, 39.85726], [-104.7891573, 39.8572612], [-104.7891924, 39.8572622], [-104.7892275, 39.8572631], [-104.7892626, 39.8572639], [-104.7892978, 39.8572648], [-104.7893329, 39.8572656], [-104.789368, 39.8572664], [-104.7894032, 39.8572673], [-104.7894383, 39.8572681], [-104.7894734, 39.857269], [-104.7895085, 39.8572698], [-104.7895437, 39.8572707], [-104.7895788, 39.8572715], [-104.7896139, 39.8572724], [-104.789649, 39.8572732], [-104.7896842, 39.8572741], [-104.7897193, 39.8572749], [-104.7897544, 39.8572758], [-104.7897896, 39.8572766], [-104.7898247, 39.8572775], [-104.7898598, 39.8572783], [-104.7898949, 39.8572792], [-104.7899301, 39.85728], [-104.7899652, 39.8572808], [-104.7900003, 39.8572816], [-104.7900355, 39.8572816], [-104.7900706, 39.8572816], [-104.7901058, 39.8572816], [-104.7901409, 39.8572816], [-104.7901761, 39.8572816], [-104.7902112, 39.8572816], [-104.7902463, 39.8572816], [-104.7902815, 39.8572816], [-104.7903166, 39.8572816], [-104.7903518, 39.8572816], [-104.7903869, 39.8572816], [-104.7904221, 39.8572816], [-104.7904326, 39.8572816]]}}]}