{"type": "FeatureCollection", "features": [{"type": "Feature", "properties": {"name": "centerline", "kind": "full", "closed": true, "default_width_m": 12.0, "widths_m": [12.0, 12.0, 12.0, 12.0, 12.0, 12.0, 12.0, 12.0, 12.0, 12.0, 12.0, 12.0, 12.0, 12.0, 12.0, 12.0, 12.0, 12.0, 12.0, 12.0, 12.0, 12.0, 12.0, 12.0, 12.0, 12.0, 12.0, 12.0, 12.0, 12.0, 12.0, 12.0, 12.0, 12.0, 12.0, 12.0, 12.0, 12.0, 12.0, 12.0, 12.0, 12.0, 12.0, 12.0, 12.0, 12.0, 12.0, 12.0, 12.0, 12.0, 12.0, 12.0, 12.0, 12.0, 12.0, 12.0, 12.0, 12.0, 12.0, 12.0, 12.0, 12.0, 12.0, 12.0, 12.0, 12.0, 12.0, 12.0, 12.0, 12.0, 12.0, 12.0, 12.0, 12.0, 12.0, 12.0, 12.0, 12.0, 12.0, 12.0, 12.0, 12.0, 12.0, 12.0, 12.0, 12.0, 12.0, 12.0, 12.0, 12.0, 12.0, 12.0, 12.0, 12.0, 12.0, 12.0, 12.0, 12.0, 12.0, 12.0, 12.0, 12.0, 12.0, 12.0, 12.0, 12.0, 12.0, 12.0, 12.0, 12.0, 12.0, 12.0, 12.0, 12.0, 12.0, 12.0, 12.0, 12.0, 12.0, 12.0, 12.0, 12.0, 12.0, 12.0, 12.0, 12.0, 12.0, 12.0, 12.0, 12.0, 12.0, 12.0, 12.0, 12.0, 12.0, 12.0, 12.0, 12.0, 12.0, 12.0, 12.0, 12.0, 12.0, 12.0, 12.0, 12.0, 12.0, 12.0, 12.0, 12.0, 12.0, 12.0, 12.0, 12.0, 12.0, 12.0, 12.0, 12.0, 12.0, 12.0, 12.0, 12.0, 12.0, 12.0, 12.0, 12.0, 12.0, 12.0, 12.0, 12.0, 12.0, 12.0, 12.0, 12.0, 12.0, 12.0, 12.0, 12.0, 12.0, 12.0, 12.0, 12.0, 12.0, 12.0, 12.0, 12.0, 12.0, 12.0, 12.0, 12.0, 12.0, 12.0, 12.0, 12.0, 12.0, 12.0, 12.0, 12.0, 12.0, 12.0, 12.0, 12.0, 12.0, 12.0, 12.0, 12.0, 12.0, 12.0, 12.0, 12.0, 12.0, 12.0, 12.0, 12.0, 12.0, 12.0, 12.0, 12.0, 12.0, 12.0, 12.0, 12.0, 12.0, 12.0, 12.0, 12.0, 12.0, 12.0, 12.0, 12.0, 12.0, 12.0, 12.0, 12.0, 12.0, 12.0, 12.0, 12.0, 12.0, 12.0, 12.0, 12.0, 12.0, 12.0, 12.0, 12.0, 12.0, 12.0, 12.0, 12.0, 12.0, 12.0, 12.0, 12.0, 12.0, 12.0, 12.0, 12.0, 12.0, 12.0, 12.0, 12.0, 12.0, 12.0, 12.0, 12.0, 12.0, 12.0, 12.0, 12.0, 12.0, 12.0, 12.0, 12.0, 12.0, 12.0, 12.0, 12.0, 12.0, 12.0, 12.0, 12.0, 12.0, 12.0, 12.0, 12.0, 12.0, 12.0, 12.0, 12.0, 12.0, 12.0, 12.0, 12.0, 12.0, 12.0, 12.0, 12.0, 12.0, 12.0, 12.0, 12.0, 12.0, 12.0, 12.0, 12.0, 12.0, 12.0, 12.0, 12.0, 12.0, 12.0, 12.0, 12.0, 12.0, 12.0, 12.0, 12.0, 12.0, 12.0, 12.0, 12.0, 12.0, 12.0, 12.0, 12.0, 12.0, 12.0, 12.0, 12.0, 12.0, 12.0, 12.0, 12.0, 12.0, 12.0, 12.0, 12.0, 12.0, 12.0, 12.0, 12.0, 12.0, 12.0, 12.0, 12.0, 12.0, 12.0, 12.0, 12.0, 12.0, 12.0, 12.0, 12.0, 12.0, 12.0, 12.0, 12.0, 12.0, 12.0, 12.0, 12.0, 12.0, 12.0, 12.0, 12.0, 12.0, 12.0, 12.0, 12.0, 12.0, 12.0, 12.0, 12.0, 12.0, 12.0, 12.0, 12.0, 12.0, 12.0, 12.0, 12.0, 12.0, 12.0, 12.0, 12.0, 12.0, 12.0, 12.0, 12.0, 12.0, 12.0, 12.0, 12.0, 12.0, 12.0, 12.0, 12.0, 12.0, 12.0, 12.0, 12.0, 12.0, 12.0, 12.0, 12.0, 12.0, 12.0, 12.0, 12.0, 12.0, 12.0, 12.0, 12.0, 12.0, 12.0, 12.0, 12.0, 12.0, 12.0, 12.0, 12.0, 12.0, 12.0, 12.0, 12.0, 12.0, 12.0, 12.0, 12.0, 12.0, 12.0, 12.0, 12.0, 12.0, 12.0, 12.0, 12.0, 12.0, 12.0, 12.0, 12.0, 12.0, 12.0, 12.0, 12.0, 12.0, 12.0, 12.0, 12.0, 12.0, 12.0, 12.0, 12.0, 12.0, 12.0, 12.0, 12.0, 12.0, 12.0, 12.0, 12.0, 12.0, 12.0, 12.0, 12.0, 12.0, 12.0, 12.0, 12.0, 12.0, 12.0, 12.0, 12.0, 12.0, 12.0, 12.0, 12.0, 12.0, 12.0, 12.0, 12.0, 12.0, 12.0, 12.0, 12.0, 12.0, 12.0, 12.0, 12.0, 12.0, 12.0, 12.0, 12.0, 12.0, 12.0, 12.0, 12.0, 12.0, 12.0, 12.0, 12.0, 12.0, 12.0, 12.0, 12.0, 12.0, 12.0, 12.0, 12.0, 12.0, 12.0, 12.0, 12.0, 12.0, 12.0, 12.0, 12.0, 12.0, 12.0, 12.0, 12.0, 12.0, 12.0, 12.0, 12.0, 12.0, 12.0, 12.0, 12.0, 12.0, 12.0, 12.0, 12.0, 12.0, 12.0, 12.0, 12.0, 12.0, 12.0, 12.0, 12.0, 12.0, 12.0, 12.0, 12.0, 12.0, 12.0, 12.0, 12.0, 12.0, 12.0, 12.0, 12.0, 12.0, 12.0, 12.0, 12.0, 12.0, 12.0, 12.0, 12.0, 12.0, 12.0, 12.0, 12.0, 12.0, 12.0, 12.0, 12.0, 12.0, 12.0, 12.0, 12.0, 12.0, 12.0, 12.0, 12.0, 12.0, 12.0, 12.0, 12.0, 12.0, 12.0, 12.0, 12.0, 12.0, 12.0, 12.0, 12.0, 12.0, 12.0, 12.0, 12.0, 12.0, 12.0, 12.0, 12.0, 12.0, 12.0, 12.0, 12.0, 12.0, 12.0, 12.0, 12.0, 12.0, 12.0, 12.0, 12.0, 12.0, 12.0, 12.0, 12.0, 12.0, 12.0, 12.0, 12.0, 12.0, 12.0, 12.0, 12.0, 12.0, 12.0, 12.0, 12.0, 12.0, 12.0, 12.0, 12.0, 12.0, 12.0, 12.0, 12.0, 12.0, 12.0, 12.0, 12.0, 12.0, 12.0, 12.0, 12.0, 12.0, 12.0, 12.0, 12.0, 12.0, 12.0, 12.0, 12.0, 12.0, 12.0, 12.0, 12.0, 12.0, 12.0, 12.0, 12.0, 12.0, 12.0, 12.0, 12.0, 12.0, 12.0, 12.0, 12.0, 12.0, 12.0, 12.0, 12.0, 12.0, 12.0, 12.0, 12.0, 12.0, 12.0, 12.0, 12.0, 12.0, 12.0, 12.0, 12.0, 12.0, 12.0, 12.0, 12.0, 12.0, 12.0, 12.0, 12.0, 12.0, 12.0, 12.0, 12.0, 12.0, 12.0, 12.0, 12.0, 12.0, 12.0, 12.0, 12.0, 12.0, 12.0, 12.0, 12.0, 12.0, 12.0, 12.0, 12.0, 12.0, 12.0, 12.0, 12.0, 12.0, 12.0, 12.0, 12.0, 12.0, 12.0, 12.0, 12.0, 12.0, 12.0, 12.0, 12.0, 12.0, 12.0, 12.0, 12.0, 12.0, 12.0, 12.0, 12.0, 12.0, 12.0, 12.0, 12.0, 12.0, 12.0, 12.0, 12.0, 12.0, 12.0, 12.0, 12.0, 12.0, 12.0, 12.0, 12.0, 12.0, 12.0, 12.0, 12.0, 12.0, 12.0, 12.0, 12.0, 12.0, 12.0, 12.0, 12.0, 12.0, 12.0, 12.0, 12.0, 12.0, 12.0, 12.0, 12.0, 12.0, 12.0, 12.0, 12.0, 12.0, 12.0, 12.0, 12.0, 12.0, 12.0, 12.0, 12.0, 12.0, 12.0, 12.0, 12.0, 12.0, 12.0, 12.0, 12.0, 12.0, 12.0, 12.0, 12.0, 12.0, 12.0, 12.0, 12.0, 12.0, 12.0, 12.0, 12.0, 12.0, 12.0, 12.0, 12.0, 12.0, 12.0, 12.0, 12.0, 12.0, 12.0, 12.0, 12.0, 12.0, 12.0, 12.0, 12.0, 12.0, 12.0, 12.0, 12.0, 12.0, 12.0, 12.0, 12.0, 12.0, 12.0, 12.0, 12.0, 12.0, 12.0, 12.0, 12.0, 12.0, 12.0, 12.0, 12.0, 12.0, 12.0, 12.0, 12.0, 12.0, 12.0, 12.0, 12.0, 12.0, 12.0, 12.0, 12.0, 12.0, 12.0, 12.0, 12.0, 12.0, 12.0, 12.0, 12.0, 12.0, 12.0, 12.0, 12.0, 12.0, 12.0, 12.0, 12.0, 12.0, 12.0, 12.0, 12.0, 12.0, 12.0, 12.0, 12.0, 12.0, 12.0, 12.0, 12.0, 12.0, 12.0, 12.0, 12.0, 12.0, 12.0, 12.0, 12.0, 12.0, 12.0, 12.0, 12.0, 12.0, 12.0, 12.0, 12.0, 12.0, 12.0, 12.0, 12.0, 12.0, 12.0, 12.0, 12.0, 12.0, 12.0, 12.0, 12.0, 12.0, 12.0, 12.0, 12.0, 12.0, 12.0, 12.0, 12.0, 12.0, 12.0, 12.0, 12.0, 12.0, 12.0, 12.0, 12.0, 12.0, 12.0, 12.0, 12.0, 12.0, 12.0, 12.0, 12.0, 12.0, 12.0, 12.0, 12.0, 12.0, 12.0, 12.0, 12.0, 12.0, 12.0, 12.0, 12.0, 12.0, 12.0, 12.0, 12.0, 12.0, 12.0, 12.0, 12.0, 12.0, 12.0, 12.0, 12.0, 12.0, 12.0, 12.0, 12.0, 12.0, 12.0, 12.0, 12.0, 12.0, 12.0, 12.0, 12.0, 12.0, 12.0, 12.0, 12.0, 12.0, 12.0, 12.0, 12.0, 12.0, 12.0, 12.0, 12.0, 12.0, 12.0, 12.0, 12.0, 12.0, 12.0, 12.0, 12.0, 12.0, 12.0, 12.0, 12.0, 12.0, 12.0, 12.0, 12.0, 12.0, 12.0, 12.0, 12.0, 12.0, 12.0, 12.0, 12.0, 12.0, 12.0, 12.0, 12.0, 12.0, 12.0, 12.0, 12.0, 12.0, 12.0, 12.0, 12.0, 12.0, 12.0, 12.0, 12.0, 12.0, 12.0, 12.0, 12.0, 12.0, 12.0, 12.0, 12.0, 12.0, 12.0, 12.0, 12.0, 12.0, 12.0, 12.0, 12.0, 12.0, 12.0, 12.0], "length_m": 3104.6, "point_count": 1037, "roads": ["<from GPS drive>"]}, "geometry": {"type": "LineString", "coordinates": [[-103.89684056666668, 39.73401583333333], [-103.89687560474013, 39.73401720064035], [-103.89691064281394, 39.73401856794739], [-103.89694568088808, 39.73401993525444], [-103.89698071896258, 39.7340213025615], [-103.89701575703742, 39.73402266986858], [-103.8970507951126, 39.73402403717567], [-103.89708583318814, 39.73402540448277], [-103.89712087126402, 39.734026771789885], [-103.89715590934026, 39.73402813909701], [-103.89719094741683, 39.734029506404156], [-103.89722598549375, 39.73403087371131], [-103.89726102357102, 39.73403224101848], [-103.89729606164863, 39.73403360832567], [-103.8973310997266, 39.734034975632866], [-103.89736613780491, 39.73403634294008], [-103.89740117588356, 39.73403771024731], [-103.89743621396256, 39.73403907755454], [-103.89747125204191, 39.73404044486179], [-103.8975062901216, 39.73404181216905], [-103.89754132820164, 39.73404317947633], [-103.89757636628202, 39.73404454678362], [-103.89761140436276, 39.73404591409093], [-103.89764644244384, 39.73404728139825], [-103.89768148052526, 39.73404864870558], [-103.89771651860704, 39.73405001601293], [-103.89775155668916, 39.73405138332029], [-103.89778649201872, 39.73405375723772], [-103.89782137831841, 39.73405661147707], [-103.89785626461881, 39.734059465716484], [-103.89789115091992, 39.73406231995595], [-103.89792603722175, 39.73406517419548], [-103.8979609235243, 39.73406802843507], [-103.89799580982755, 39.734070882674715], [-103.89803069613151, 39.73407373691442], [-103.8980655824362, 39.73407659115418], [-103.8981004687416, 39.734079445394], [-103.89813535504771, 39.73408229963388], [-103.89817024135453, 39.73408515387382], [-103.89820512766208, 39.734088008113815], [-103.89824001397034, 39.734090862353874], [-103.8982749002793, 39.73409371659399], [-103.89830978658898, 39.73409657083416], [-103.89834467289938, 39.73409942507439], [-103.89837938220916, 39.73410331824212], [-103.89841404687361, 39.73410747346503], [-103.89844871153909, 39.73411162868806], [-103.89848337620558, 39.734115783911214], [-103.89851804087309, 39.73411993913449], [-103.89855270554162, 39.73412409435789], [-103.89858737021117, 39.73412824958141], [-103.89862203488174, 39.73413240480505], [-103.89865669955333, 39.734136560028816], [-103.89869136422594, 39.7341407152527], [-103.89872602889957, 39.73414487047671], [-103.89876069357423, 39.734149025700845], [-103.8987953582499, 39.7341531809251], [-103.89883002292659, 39.73415733614947], [-103.8988646876043, 39.73416149137397], [-103.89889935228304, 39.73416564659859], [-103.89893401696278, 39.734169801823334], [-103.89896868164355, 39.7341739570482], [-103.89900334632534, 39.734178112273185], [-103.89903801100816, 39.7341822674983], [-103.899072675692, 39.73418642272353], [-103.89910734037684, 39.73419057794889], [-103.89914200506271, 39.73419473317436], [-103.89917666974961, 39.73419888839996], [-103.89921133443752, 39.73420304362568], [-103.89924599912645, 39.73420719885153], [-103.8992806638164, 39.734211354077495], [-103.89931532850737, 39.73421550930358], [-103.89934999319937, 39.73421966452979], [-103.89938465789238, 39.734223819756124], [-103.89941932258641, 39.73422797498258], [-103.89945398728146, 39.73423213020916], [-103.89948865197753, 39.734236285435856], [-103.89952331667463, 39.734240440662674], [-103.89955798137274, 39.73424459588962], [-103.89959264607187, 39.73424875111669], [-103.89962731077202, 39.734252906343876], [-103.8996619754732, 39.734257061571185], [-103.89969664017539, 39.734261216798615], [-103.8997313048786, 39.73426537202617], [-103.89976596958283, 39.73426952725385], [-103.89980063428808, 39.73427368248165], [-103.89983529899436, 39.73427783770957], [-103.89986996370165, 39.73428199293762], [-103.89990462840996, 39.734286148165786], [-103.89993929311929, 39.734290303394076], [-103.89997395782964, 39.734294458622486], [-103.90000862254102, 39.73429861385102], [-103.90004328725341, 39.734302769079676], [-103.90007795196682, 39.734306924308456], [-103.90011261668126, 39.734311079537356], [-103.90014728139671, 39.73431523476638], [-103.90018194611318, 39.73431938999552], [-103.90021661083067, 39.73432354522479], [-103.90025127554918, 39.73432770045418], [-103.90028594026872, 39.73433185568369], [-103.90032001267136, 39.73433747806393], [-103.9003516422752, 39.73434915117197], [-103.90038327188122, 39.73436082428081], [-103.90041490148943, 39.73437249739046], [-103.9004465310998, 39.73438417050091], [-103.90047816071235, 39.73439584361217], [-103.90050979032708, 39.73440751672423], [-103.90054141994398, 39.7344191898371], [-103.90057304956306, 39.73443086295077], [-103.90060467918433, 39.73444253606524], [-103.90063630880776, 39.73445420918051], [-103.90066793843337, 39.73446588229659], [-103.90069956806116, 39.73447755541347], [-103.90073119769113, 39.73448922853115], [-103.90076282732328, 39.73450090164964], [-103.9007944569576, 39.73451257476893], [-103.9008260865941, 39.73452424788902], [-103.90085771623276, 39.734535921009915], [-103.90088934587362, 39.73454759413161], [-103.90092097551666, 39.73455926725411], [-103.90094904601456, 39.734574755937416], [-103.90097356201669, 39.734594055195636], [-103.90099807802049, 39.73461335445518], [-103.90102259402597, 39.734632653716034], [-103.90104711003313, 39.73465195297821], [-103.90107162604197, 39.73467125224171], [-103.90109614205248, 39.734690551506525], [-103.90112065806467, 39.73470985077266], [-103.90114517407852, 39.73472915004012], [-103.90116969009405, 39.73474844930889], [-103.90119420611126, 39.73476774857898], [-103.90121872213015, 39.73478704785039], [-103.9012437272081, 39.73480596788717], [-103.90126902799366, 39.73482465862134], [-103.901294328781, 39.73484334935683], [-103.90131962957014, 39.73486204009364], [-103.90134493036105, 39.73488073083176], [-103.90137023115375, 39.73489942157121], [-103.90139553194822, 39.734918112311966], [-103.90142083274449, 39.73493680305405], [-103.90144613354255, 39.73495549379744], [-103.90147143434238, 39.73497418454216], [-103.90149673514401, 39.73499287528819], [-103.90152290938455, 39.73501077683572], [-103.90155094654394, 39.73502699513181], [-103.90157898370543, 39.735043213429115], [-103.90160702086904, 39.73505943172764], [-103.90163505803474, 39.73507565002738], [-103.90166309520255, 39.73509186832835], [-103.90169113237248, 39.735108086630525], [-103.9017191695445, 39.735124304933926], [-103.90174720671864, 39.73514052323854], [-103.90177524389487, 39.73515674154438], [-103.90180328107323, 39.73517295985143], [-103.9018339203191, 39.73516812446124], [-103.90186542850836, 39.735156258308315], [-103.90189693669542, 39.73514439215621], [-103.9019284448803, 39.735132526004925], [-103.90195995306298, 39.735120659854466], [-103.90199146124348, 39.73510879370483], [-103.9020229694218, 39.73509692755602], [-103.90205447759791, 39.735085061408036], [-103.90208598577185, 39.735073195260874], [-103.90211749394359, 39.73506132911454], [-103.90214900211316, 39.73504946296902], [-103.90218051028054, 39.735037596824334], [-103.90221201844574, 39.73502573068047], [-103.90224352660874, 39.73501386453743], [-103.90227503476956, 39.73500199839521], [-103.90230654292819, 39.73499013225382], [-103.90233735649147, 39.73497725081359], [-103.90236792094959, 39.73496400525483], [-103.90239848540547, 39.734950759697035], [-103.90242904985914, 39.734937514140206], [-103.90245961431057, 39.734924268584344], [-103.90249017875978, 39.73491102302945], [-103.90252074320675, 39.73489777747552], [-103.90255130765149, 39.73488453192255], [-103.902581872094, 39.734871286370556], [-103.9026124365343, 39.734858040819525], [-103.90264300097236, 39.73484479526946], [-103.9026735654082, 39.73483154972036], [-103.9027041298418, 39.73481830417223], [-103.90273469427316, 39.734805058625064], [-103.9027652587023, 39.734791813078864], [-103.90279582312921, 39.73477856753363], [-103.9028263875539, 39.734765321989364], [-103.90285683252202, 39.73475191683962], [-103.90288708197983, 39.73473825046435], [-103.9029173314354, 39.734724584090095], [-103.90294758088875, 39.734710917716846], [-103.90297783033988, 39.734697251344606], [-103.90300807978878, 39.73468358497337], [-103.90303832923544, 39.73466991860314], [-103.90306857867988, 39.73465625223392], [-103.90309882812208, 39.7346425858657], [-103.90312907756206, 39.73462891949849], [-103.9031593269998, 39.73461525313229], [-103.90318957643531, 39.7346015867671], [-103.9032198258686, 39.734587920402916], [-103.90325007529967, 39.734574254039735], [-103.9032803247285, 39.734560587677564], [-103.9033105741551, 39.7345469213164], [-103.90334082357947, 39.73453325495624], [-103.90337107300161, 39.73451958859709], [-103.90340150392852, 39.73450616476464], [-103.9034320635014, 39.73449291282842], [-103.90346262307204, 39.73447966089317], [-103.90349318264046, 39.73446640895889], [-103.90352374220664, 39.73445315702557], [-103.9035543017706, 39.73443990509322], [-103.90358486133232, 39.73442665316184], [-103.90361542089181, 39.73441340123143], [-103.90364598044908, 39.73440014930198], [-103.90367654000413, 39.734386897373504], [-103.90370709955694, 39.734373645445984], [-103.90373765910752, 39.73436039351944], [-103.90376821865587, 39.73434714159386], [-103.90379877820199, 39.734333889669244], [-103.90382933774588, 39.7343206377456], [-103.90385989728755, 39.734307385822916], [-103.90389045682699, 39.734294133901194], [-103.9039210163642, 39.73428088198044], [-103.90395209522265, 39.73426836833567], [-103.90398324046363, 39.73425594906448], [-103.9040143857024, 39.73424352979418], [-103.90404553093894, 39.73423111052475], [-103.90407667617329, 39.73421869125621], [-103.90410782140542, 39.73420627198855], [-103.90413896663534, 39.734193852721766], [-103.90417011186305, 39.734181433455866], [-103.90420125708854, 39.73416901419085], [-103.90423240231183, 39.734156594926716], [-103.9042635475329, 39.73414417566347], [-103.90429469275176, 39.7341317564011], [-103.90432583796841, 39.73411933713961], [-103.90435698318285, 39.734106917879004], [-103.90438812839508, 39.73409449861928], [-103.9044192736051, 39.734082079360434], [-103.90445116836767, 39.734072542881066], [-103.90448612886449, 39.73407479717823], [-103.90452108936188, 39.73407705147543], [-103.90455604985983, 39.73407930577267], [-103.90459101035836, 39.73408156006994], [-103.90462402205972, 39.73408863085859], [-103.90465447381887, 39.73410202859684], [-103.90468492558024, 39.73411542633607], [-103.90471537734385, 39.734128824076286], [-103.9047390071055, 39.7341476576322], [-103.90475749843876, 39.73417058552033], [-103.90477598977286, 39.73419351340953], [-103.90479352973212, 39.734216660158324], [-103.90479444832786, 39.73424363055677], [-103.90479536692361, 39.73427060095521], [-103.90479628551937, 39.734297571353665], [-103.90479122229779, 39.73432330168972], [-103.90477280059228, 39.734346262741724], [-103.90475437888594, 39.73436922379478], [-103.90473595717874, 39.734392184848886], [-103.9047175354707, 39.73441514590405], [-103.90469911376181, 39.73443810696027], [-103.90468069205207, 39.734461068017545], [-103.90466227034149, 39.73448402907587], [-103.90464384863006, 39.73450699013525], [-103.90462542691779, 39.73452995119569], [-103.90460700520467, 39.73455291225718], [-103.9045885834907, 39.73457587331973], [-103.9045701617759, 39.73459883438333], [-103.90455174006024, 39.73462179544798], [-103.90453331834374, 39.73464475651369], [-103.9045148966264, 39.73466771758045], [-103.90449621277939, 39.73469054774572], [-103.90447642893461, 39.73471282859165], [-103.90445664508883, 39.734735109438724], [-103.90443686124202, 39.734757390286944], [-103.9044170773942, 39.73477967113631], [-103.90439729354536, 39.73480195198682], [-103.90437750969551, 39.73482423283847], [-103.90435772584463, 39.73484651369127], [-103.90433794199275, 39.734868794545214], [-103.90431815813984, 39.734891075400306], [-103.90429837428591, 39.73491335625654], [-103.90427859043098, 39.73493563711392], [-103.90425880657502, 39.734957917972444], [-103.90423902271804, 39.73498019883211], [-103.90421923886005, 39.73500247969293], [-103.90419945500105, 39.73502476055489], [-103.90417967114102, 39.735047041418], [-103.90415988727999, 39.73506932228225], [-103.9041392754923, 39.73509114556094], [-103.90411811941371, 39.73511266801632], [-103.90409696333391, 39.73513419047292], [-103.90407580725292, 39.73515571293074], [-103.90405465117072, 39.735177235389784], [-103.90403349508733, 39.73519875785005], [-103.90401233900273, 39.73522028031154], [-103.90399118291694, 39.73524180277425], [-103.90397002682994, 39.73526332523818], [-103.90394887074174, 39.735284847703326], [-103.90392771465234, 39.735306370169695], [-103.90390655856174, 39.73532789263729], [-103.90388540246994, 39.7353494151061], [-103.90386424637694, 39.735370937576135], [-103.90384309028273, 39.73539246004739], [-103.90382193418732, 39.73541398251987], [-103.90380077809071, 39.735435504993575], [-103.90377962199291, 39.7354570274685], [-103.90375819473188, 39.73547838608201], [-103.90373600201872, 39.73549928213496], [-103.90371380930422, 39.73552017818918], [-103.90369161658838, 39.73554107424466], [-103.90366942387118, 39.73556197030141], [-103.90364723115263, 39.73558286635943], [-103.90362503843275, 39.73560376241872], [-103.90360284571152, 39.735624658479274], [-103.90358065298894, 39.735645554541094], [-103.90355846026502, 39.735666450604185], [-103.90353626753975, 39.73568734666854], [-103.90351407481313, 39.73570824273416], [-103.90349188208516, 39.735729138801055], [-103.90346968935586, 39.73575003486921], [-103.9034474966252, 39.73577093093864], [-103.9034253038932, 39.735791827009336], [-103.90340311115986, 39.735812723081295], [-103.90338091842517, 39.735833619154526], [-103.90335872568913, 39.73585451522902], [-103.90333575589561, 39.73587490492562], [-103.9033125903497, 39.73589516705933], [-103.90328942480231, 39.73591542919434], [-103.90326625925343, 39.735935691330646], [-103.90324309370307, 39.73595595346825], [-103.90321992815122, 39.73597621560715], [-103.90319676259789, 39.735996477747356], [-103.90317359704306, 39.73601673988885], [-103.90315043148676, 39.73603700203165], [-103.90312726592899, 39.73605726417575], [-103.90310410036972, 39.73607752632115], [-103.90308093480897, 39.73609778846784], [-103.90305776924673, 39.73611805061583], [-103.90303460368301, 39.73613831276512], [-103.9030114381178, 39.73615857491571], [-103.90298827255111, 39.7361788370676], [-103.90296510698293, 39.736199099220784], [-103.90294194141327, 39.73621936137527], [-103.90291665248495, 39.7362377316565], [-103.90288720013015, 39.73625239239775], [-103.90285774777314, 39.7362670531401], [-103.90282829541393, 39.73628171388354], [-103.90279884305251, 39.73629637462809], [-103.90276939068887, 39.73631103537373], [-103.90273993832304, 39.736325696120474], [-103.90270807225639, 39.73633676070608], [-103.90267547073299, 39.73634672953968], [-103.90264286920754, 39.73635669837391], [-103.90261026768006, 39.736366667208756], [-103.90257766615055, 39.73637663604423], [-103.90254506461899, 39.736386604880316], [-103.90251060793422, 39.73639153625114], [-103.9024760501638, 39.73639619313771], [-103.90244149239226, 39.736400850024424], [-103.90240693461958, 39.73640550691129], [-103.90237237684576, 39.73641016379831], [-103.90233781907081, 39.73641482068549], [-103.90230275764081, 39.736414894016214], [-103.90226767369063, 39.736414762399235], [-103.90223258974048, 39.73641463078226], [-103.90219750579035, 39.73641449916528], [-103.90216242184027, 39.7364143675483], [-103.90212733789022, 39.73641423593133], [-103.90209263050977, 39.73641084071845], [-103.9020580645374, 39.73640621997875], [-103.90202349856615, 39.736401599239194], [-103.90198893259604, 39.73639697849979], [-103.90195436662705, 39.736392357760536], [-103.90191980065919, 39.73638773702143], [-103.90188633530072, 39.73637980641494], [-103.9018531277776, 39.73637110042321], [-103.90181992025636, 39.736362394431985], [-103.901786712737, 39.73635368844125], [-103.90175350521953, 39.73634498245101], [-103.90172029770393, 39.73633627646126], [-103.90169160903072, 39.736321066828076], [-103.90166373984938, 39.73630467776243], [-103.90163587067015, 39.73628828869802], [-103.901608001493, 39.736271899634836], [-103.90158013231795, 39.73625551057289], [-103.90155226314498, 39.73623912151217], [-103.9015243939741, 39.73622273245268], [-103.90149652480531, 39.73620634339442], [-103.90146865563861, 39.73618995433739], [-103.901440786474, 39.73617356528159], [-103.90141291731149, 39.73615717622702], [-103.90138504815107, 39.736140787173674], [-103.90135717899274, 39.73612439812156], [-103.9013293098365, 39.736108009070676], [-103.90130144068235, 39.736091620021014], [-103.90127372014831, 39.73607508856862], [-103.90124687914334, 39.7360577143627], [-103.90122003814035, 39.73604034015806], [-103.90119319713935, 39.7360229659547], [-103.90116635614032, 39.73600559175263], [-103.90113951514327, 39.735988217551835], [-103.90111267414821, 39.73597084335232], [-103.90108583315512, 39.73595346915409], [-103.90105899216401, 39.73593609495714], [-103.90103215117489, 39.735918720761475], [-103.90100531018774, 39.73590134656709], [-103.90097846920257, 39.73588397237398], [-103.90095162821937, 39.73586659818216], [-103.90092478723817, 39.73584922399162], [-103.90089794625894, 39.735831849802366], [-103.9008711052817, 39.73581447561439], [-103.9008445934388, 39.735796805456495], [-103.90081810504924, 39.735779114211105], [-103.9007916166616, 39.73576142296701], [-103.90076512827592, 39.735743731724206], [-103.90073863989217, 39.7357260404827], [-103.90071215151036, 39.73570834924249], [-103.90068566313049, 39.73569065800358], [-103.90065917475255, 39.735672966765954], [-103.90063268637655, 39.73565527552962], [-103.90060619800249, 39.73563758429459], [-103.90057970963036, 39.73561989306085], [-103.90055322126018, 39.73560220182841], [-103.90052673289193, 39.735584510597256], [-103.90050024452562, 39.7355668193674], [-103.90047359613264, 39.73554927340506], [-103.90044655176338, 39.73553208689175], [-103.90041950739612, 39.73551490037971], [-103.90039246303087, 39.73549771386895], [-103.90036541866762, 39.735480527359464], [-103.90033837430637, 39.73546334085125], [-103.90031132994713, 39.7354461543443], [-103.90028428558989, 39.73542896783863], [-103.90025724123466, 39.735411781334236], [-103.90023019688142, 39.735394594831114], [-103.9002031525302, 39.73537740832926], [-103.90017610818097, 39.735360221828685], [-103.90014906383375, 39.735343035329386], [-103.90012201948852, 39.73532584883136], [-103.90009497514531, 39.7353086623346], [-103.90006700567959, 39.73529237507224], [-103.90003903501216, 39.735276088981216], [-103.90001106434683, 39.73525980289141], [-103.89998309368359, 39.73524351680283], [-103.89995512302245, 39.73522723071547], [-103.89992715236342, 39.735210944629344], [-103.89989918170649, 39.73519465854444], [-103.89987121105166, 39.73517837246075], [-103.89984324039892, 39.73516208637829], [-103.89981526974829, 39.73514580029705], [-103.89978729909976, 39.73512951421703], [-103.89975932845333, 39.73511322813823], [-103.899731357809, 39.73509694206066], [-103.8996986335176, 39.73509151831439], [-103.89966354984877, 39.73509148586557], [-103.89962846617993, 39.73509145341674], [-103.89959445777227, 39.73509648840277], [-103.899561207373, 39.73510509569676], [-103.89952795697185, 39.73511370299123], [-103.89950613850658, 39.735134175004056], [-103.89948575011293, 39.73515613122895], [-103.89946536171819, 39.735178087455026], [-103.89946186429263, 39.73520432436283], [-103.899461283004, 39.735231300307554], [-103.89946070171536, 39.73525827625228], [-103.89946012042672, 39.73528525219701], [-103.8994595365997, 39.735312228107425], [-103.8994588845824, 39.73533920309601], [-103.89945823256511, 39.735366178084604], [-103.89945758054782, 39.7353931530732], [-103.89945692853053, 39.73542012806179], [-103.89945627651323, 39.73544710305038], [-103.89945486966495, 39.73547405243996], [-103.89945243123883, 39.73550096684506], [-103.8994499928127, 39.73552788125018], [-103.89944755438657, 39.735554795655325], [-103.89944511596043, 39.735581710060494], [-103.8994426775343, 39.73560862446569], [-103.89943994600148, 39.73563551349218], [-103.89943454060456, 39.735662171001316], [-103.89942913520761, 39.735688828510575], [-103.89942372981064, 39.735715486019956], [-103.89941832441365, 39.73574214352946], [-103.89941291901663, 39.73576880103908], [-103.89940751361958, 39.73579545854883], [-103.89940057332196, 39.73582180747522], [-103.89938832116702, 39.735847088481464], [-103.89937606901181, 39.73587236948827], [-103.89936381685632, 39.735897650495644], [-103.89935156470057, 39.73592293150359], [-103.89933931254453, 39.73594821251209], [-103.89932706038822, 39.735973493521165], [-103.89930589038696, 39.73599436566507], [-103.89928106738915, 39.73601343181682], [-103.89925624438963, 39.736032497969894], [-103.8992314213884, 39.73605156412429], [-103.89920659838543, 39.736070630280004], [-103.89918101835008, 39.73608900409998], [-103.89915233239593, 39.73610453742451], [-103.89912364643962, 39.736120070750204], [-103.89909496048115, 39.73613560407707], [-103.89906627452052, 39.73615113740511], [-103.8990362850038, 39.736164606796905], [-103.89900267327042, 39.73617234107697], [-103.8989690615353, 39.73618007535744], [-103.89893544979844, 39.7361878096383], [-103.89890183805987, 39.73619554391957], [-103.89886820545345, 39.7362031922059], [-103.8988332283772, 39.73620529953975], [-103.8987982513004, 39.73620740687363], [-103.89876327422309, 39.73620951420755], [-103.89872829714524, 39.7362116215415], [-103.89869332006685, 39.73621372887548], [-103.89865836753296, 39.73621193700507], [-103.89862341862376, 39.736209569399776], [-103.89858846971515, 39.736207201794514], [-103.89855352080714, 39.736204834189294], [-103.89851857189973, 39.73620246658412], [-103.89848386367726, 39.73619868008538], [-103.89844929440973, 39.73619407441723], [-103.89841472514333, 39.736189468749224], [-103.89838015587804, 39.73618486308137], [-103.89834558661387, 39.73618025741367], [-103.89831104025001, 39.73617557454898], [-103.89827729330905, 39.736168196689476], [-103.89824354636977, 39.73616081883034], [-103.89820979943215, 39.73615344097157], [-103.89817605249621, 39.73614606311317], [-103.89814230556193, 39.73613868525513], [-103.8981091194979, 39.736130113533456], [-103.89807703268166, 39.736119201956335], [-103.89804494586754, 39.73610829037993], [-103.89801285905554, 39.73609737880425], [-103.89798077224567, 39.7360864672293], [-103.89795078151072, 39.73607265594851], [-103.89792179199392, 39.736057459585595], [-103.8978928024793, 39.73604226322382], [-103.89786381296688, 39.736027066863194], [-103.8978352385122, 39.73601150755276], [-103.89781193386439, 39.73599133998875], [-103.89778862921808, 39.73597117242604], [-103.89776532457329, 39.73595100486463], [-103.89774201992999, 39.73593083730453], [-103.89771975787255, 39.73591004692493], [-103.8977001098313, 39.73588769498043], [-103.89768046179107, 39.73586534303706], [-103.89766081375183, 39.735842991094835], [-103.89764127893835, 39.73582058191328], [-103.89762238392287, 39.73579784928386], [-103.89760348890829, 39.73577511665553], [-103.8975845938946, 39.735752384028295], [-103.89756569888183, 39.73572965140214], [-103.89754367385991, 39.73570868797348], [-103.89752110000508, 39.73568803476706], [-103.89749852615164, 39.735667381561925], [-103.89747595229959, 39.73564672835807], [-103.89745309448591, 39.735626325634634], [-103.89742341051222, 39.73561194415531], [-103.89739372654074, 39.73559756267706], [-103.89736404257148, 39.73558318119988], [-103.89733435860444, 39.73556879972377], [-103.89730467463961, 39.73555441824874], [-103.89727445515041, 39.735540855604484], [-103.89724174288311, 39.735531104462964], [-103.89720903061782, 39.73552135332204], [-103.89717631835454, 39.735511602181724], [-103.89714360609327, 39.735501851042], [-103.89711089383401, 39.735492099902885], [-103.89707753578776, 39.735483947705816], [-103.89704339599962, 39.73547773106452], [-103.89700925621294, 39.73547151442349], [-103.89697511642773, 39.73546529778272], [-103.89694097664396, 39.73545908114222], [-103.89690683686166, 39.73545286450198], [-103.89687269708081, 39.735446647862005], [-103.89683855730142, 39.7354404312223], [-103.8968044175235, 39.73543421458286], [-103.89677027774702, 39.73542799794368], [-103.89673613797201, 39.73542178130477], [-103.89670199819845, 39.73541556466613], [-103.89666785842635, 39.735409348027744], [-103.8966337186557, 39.73540313138963], [-103.89659957888652, 39.73539691475178], [-103.8965654391188, 39.7353906981142], [-103.89653129935253, 39.735384481476885], [-103.89649715958772, 39.73537826483983], [-103.89646301982437, 39.73537204820305], [-103.89642888006247, 39.735365831566526], [-103.89639474030204, 39.73535961493027], [-103.89636060054306, 39.73535339829428], [-103.89632646078555, 39.735347181658554], [-103.89629232102948, 39.73534096502309], [-103.89625818127487, 39.7353347483879], [-103.89622404152172, 39.73532853175297], [-103.89618990177003, 39.7353223151183], [-103.8961557620198, 39.735316098483906], [-103.89612162227102, 39.73530988184977], [-103.89608748252371, 39.73530366521591], [-103.8960532936575, 39.73529761602067], [-103.89601899073992, 39.73529195559803], [-103.89598468782368, 39.73528629517561], [-103.8959503849088, 39.73528063475342], [-103.89591608199525, 39.73527497433145], [-103.89588177908306, 39.735269313909704], [-103.89584747617221, 39.735263653488175], [-103.89581317326271, 39.735257993066874], [-103.89577887035455, 39.73525233264579], [-103.89574456744774, 39.73524667222493], [-103.89571026454227, 39.73524101180429], [-103.89567596163816, 39.73523535138388], [-103.89564165873539, 39.735229690963685], [-103.89560735583396, 39.73522403054371], [-103.89557305293388, 39.73521837012397], [-103.89553875003516, 39.73521270970444], [-103.89550444713777, 39.73520704928514], [-103.89547014424173, 39.73520138886605], [-103.89543584134704, 39.735195728447195], [-103.8954015384537, 39.73519006802856], [-103.8953672355617, 39.73518440761014], [-103.89533293267104, 39.735178747191945], [-103.89529862978173, 39.735173086773976], [-103.89526432689378, 39.73516742635623], [-103.89523002400716, 39.7351617659387], [-103.8951957211219, 39.7351561055214], [-103.89516141823798, 39.73515044510432], [-103.89512711535541, 39.735144784687456], [-103.89509281247418, 39.735139124270816], [-103.89505850959429, 39.7351334638544], [-103.89502418634174, 39.735127879872074], [-103.89498975483266, 39.735122702018856], [-103.89495532332484, 39.73511752416582], [-103.89492089181824, 39.73511234631298], [-103.8948864603129, 39.735107168460324], [-103.89485202880881, 39.73510199060785], [-103.89481759730596, 39.73509681275557], [-103.89478316580436, 39.735091634903476], [-103.894748734304, 39.73508645705157], [-103.89471430280489, 39.735081279199854], [-103.89467987130702, 39.73507610134832], [-103.8946454398104, 39.73507092349698], [-103.89461100831502, 39.73506574564582], [-103.8945765768209, 39.73506056779485], [-103.89454214532802, 39.735055389944065], [-103.89450771383638, 39.73505021209347], [-103.89447328234598, 39.73504503424306], [-103.89443885085683, 39.73503985639284], [-103.89440441936893, 39.7350346785428], [-103.89436998788227, 39.73502950069295], [-103.89433555639685, 39.735024322843294], [-103.89430112491269, 39.73501914499382], [-103.89426669342977, 39.73501396714454], [-103.89423226194809, 39.73500878929544], [-103.89419783046766, 39.73500361144653], [-103.89416339898848, 39.73499843359781], [-103.89412896751054, 39.73499325574927], [-103.89409453603385, 39.73498807790092], [-103.8940601045584, 39.73498290005276], [-103.8940256730842, 39.73497772220479], [-103.89399121114369, 39.734972667118846], [-103.89395672157964, 39.73496772333805], [-103.89392223201679, 39.73496277955743], [-103.89388774245514, 39.734957835776974], [-103.89385325289469, 39.73495289199669], [-103.89381876333543, 39.73494794821658], [-103.89378427377737, 39.73494300443664], [-103.8937497842205, 39.734938060656866], [-103.89371529466483, 39.734933116877265], [-103.89368080511035, 39.734928173097835], [-103.89364631555706, 39.73492322931858], [-103.89361182600497, 39.7349182855395], [-103.89357733645407, 39.73491334176059], [-103.89354284690438, 39.73490839798185], [-103.89350835735588, 39.73490345420328], [-103.89347386780858, 39.73489851042488], [-103.89343937826247, 39.73489356664665], [-103.89340488871755, 39.73488862286859], [-103.89337039917383, 39.7348836790907], [-103.8933359096313, 39.73487873531299], [-103.89330142008997, 39.73487379153545], [-103.89326693054983, 39.73486884775808], [-103.8932324410109, 39.73486390398088], [-103.89319795147316, 39.73485896020385], [-103.89316346193661, 39.73485401642699], [-103.89312897240126, 39.734849072650306], [-103.8930944828671, 39.73484412887379], [-103.89305999333413, 39.73483918509744], [-103.89302542949301, 39.73483456120432], [-103.89299084808958, 39.73483001291646], [-103.89295626668726, 39.73482546462874], [-103.89292168528605, 39.73482091634117], [-103.89288710388595, 39.73481636805374], [-103.89285252248696, 39.73481181976646], [-103.89281794108908, 39.734807271479326], [-103.8927833596923, 39.73480272319234], [-103.89274877829664, 39.73479817490549], [-103.89271419690208, 39.734793626618796], [-103.89267961550863, 39.73478907833224], [-103.89264503411628, 39.734784530045836], [-103.89261045272505, 39.73477998175958], [-103.89257587133493, 39.734775433473466], [-103.89254128994591, 39.7347708851875], [-103.892506708558, 39.73476633690168], [-103.8924721271712, 39.734761788616005], [-103.89243754578551, 39.734757240330474], [-103.89240296440093, 39.734752692045085], [-103.89236838301746, 39.734748143759845], [-103.89233380163509, 39.734743595474754], [-103.89229922025383, 39.734739047189805], [-103.89226463887368, 39.734734498905], [-103.89223005749464, 39.73472995062034], [-103.89219547611671, 39.73472540233583], [-103.8921608947399, 39.73472085405147], [-103.8921263133642, 39.73471630576724], [-103.8920929884433, 39.73472077177121], [-103.89206044620178, 39.73473085303132], [-103.89202790395822, 39.73474093429208], [-103.8919953617126, 39.73475101555346], [-103.89197398070155, 39.73477234749563], [-103.89195273918945, 39.73479382005708], [-103.89193149767613, 39.73481529261976], [-103.8919102561616, 39.73483676518366], [-103.89188901464586, 39.73485823774879], [-103.8918677731289, 39.73487971031514], [-103.89184653161072, 39.73490118288272], [-103.89182529009133, 39.73492265545153], [-103.89180404857073, 39.73494412802156], [-103.89178280704893, 39.73496560059282], [-103.89176210425963, 39.734987370556695], [-103.89174244454091, 39.73500971631619], [-103.8917227848212, 39.735032062076826], [-103.89170312510049, 39.7350544078386], [-103.89168346537878, 39.735076753601504], [-103.89166380565607, 39.73509909936555], [-103.89164414593235, 39.73512144513073], [-103.89162448620763, 39.73514379089705], [-103.89160482648192, 39.7351661366645], [-103.8915851667552, 39.735188482433095], [-103.8915655070275, 39.73521082820283], [-103.89154584729877, 39.735233173973704], [-103.89152534426687, 39.73525506561394], [-103.89150475897259, 39.7352769129562], [-103.89148417367718, 39.73529876029965], [-103.89146358838066, 39.73532060764429], [-103.891443003083, 39.735342454990125], [-103.89142241778421, 39.73536430233715], [-103.8914018324843, 39.73538614968537], [-103.89138124718328, 39.73540799703478], [-103.89136066188114, 39.73542984438538], [-103.89134007657786, 39.735451691737175], [-103.89131949127346, 39.735473539090165], [-103.89129890596796, 39.73549538644435], [-103.89127693020237, 39.73551640910266], [-103.89125468070131, 39.735537269407075], [-103.8912324311989, 39.735558129712764], [-103.89121018169514, 39.73557899001972], [-103.89118793219002, 39.735599850327944], [-103.89116568268355, 39.73562071063744], [-103.89114343317573, 39.735641570948204], [-103.89112118366656, 39.73566243126024], [-103.89109893415602, 39.735683291573544], [-103.89107668464413, 39.735704151888115], [-103.8910544351309, 39.73572501220396], [-103.8910321856163, 39.73574587252107], [-103.89100892045431, 39.73576600409241], [-103.89098339776848, 39.73578451584449], [-103.89095787508083, 39.73580302759789], [-103.89093235239136, 39.7358215393526], [-103.89090682970009, 39.735840051108624], [-103.89088130700699, 39.735858562865964], [-103.8908557843121, 39.73587707462462], [-103.89083026161538, 39.735895586384586], [-103.89080473891684, 39.73591409814588], [-103.8907792162165, 39.73593260990848], [-103.89075369351434, 39.7359511216724], [-103.89072817081036, 39.735969633437634], [-103.89069888780821, 39.73598129926643], [-103.89066383631615, 39.73598246307138], [-103.8906287848238, 39.73598362687634], [-103.89059373333116, 39.735984790681314], [-103.89055868183821, 39.735985954486296], [-103.89052363034497, 39.73598711829129], [-103.89049025108892, 39.735979596123116], [-103.8904571416842, 39.73597067229613], [-103.89042403228137, 39.73596174846966], [-103.89039092288047, 39.73595282464371], [-103.89035781348147, 39.73594390081827], [-103.89032731429201, 39.73593109763325], [-103.89029871642161, 39.73591546865971], [-103.89027011855336, 39.735899839687356], [-103.89024152068727, 39.73588421071617], [-103.89021292282332, 39.73586858174617], [-103.89019894202278, 39.735845530470954], [-103.89019148276452, 39.735819167662626], [-103.89018402350632, 39.735792804854526], [-103.8901765642482, 39.73576644204665], [-103.89016910499014, 39.73574007923901], [-103.89016164573214, 39.73571371643159], [-103.8901541864742, 39.7356873536244], [-103.89014672721633, 39.735660990817436], [-103.89013926795852, 39.73563462801071], [-103.89013180870077, 39.735608265204206], [-103.8901243494431, 39.73558190239793], [-103.89012047186641, 39.73555516566587], [-103.89011852141341, 39.735528227742904], [-103.89011657096043, 39.73550128981995], [-103.89011462050745, 39.73547435189701], [-103.89011267005446, 39.73544741397409], [-103.89011071960148, 39.73542047605119], [-103.8901087691485, 39.7353935381283], [-103.89010681869551, 39.73536660020543], [-103.89010486824253, 39.73533966228258], [-103.89010291778953, 39.73531272435974], [-103.89010096733655, 39.73528578643691], [-103.89010162171417, 39.73525886633039], [-103.8901041949236, 39.735231959348134], [-103.89010676813302, 39.735205052365906], [-103.89010934134245, 39.735178145383706], [-103.89011191455188, 39.735151238401535], [-103.8901144877613, 39.73512433141939], [-103.89011706097071, 39.73509742443728], [-103.89011963418012, 39.73507051745519], [-103.89012220738954, 39.735043610473134], [-103.89012478059895, 39.735016703491105], [-103.89012735380837, 39.734989796509105], [-103.89013354426987, 39.734963269653626], [-103.89014045277042, 39.73493681825495], [-103.89014736127093, 39.734910366856475], [-103.89015426977139, 39.7348839154582], [-103.8901611782718, 39.73485746406011], [-103.89016808677215, 39.73483101266223], [-103.89017499527245, 39.73480456126454], [-103.8901819037727, 39.73477810986705], [-103.8901888122729, 39.734751658469754], [-103.89019572077304, 39.73472520707266], [-103.89020392674907, 39.73469910025607], [-103.89021971650453, 39.73467500752024], [-103.89023550625943, 39.73465091478526], [-103.89025129601377, 39.73462682205114], [-103.89026708576756, 39.73460272931787], [-103.89028287552078, 39.734578636585454], [-103.89029866527345, 39.73455454385389], [-103.89031445502556, 39.73453045112318], [-103.8903302447771, 39.73450635839332], [-103.8903460345281, 39.73448226566431], [-103.89036182427851, 39.73445817293616], [-103.89037761402838, 39.73443408020886], [-103.8903934037777, 39.73440998748241], [-103.89040919352644, 39.73438589475681], [-103.8904319163816, 39.734366494500726], [-103.89046098628953, 39.73435139006119], [-103.89049005619526, 39.734336285622796], [-103.89051912609882, 39.734321181185535], [-103.8905481960002, 39.73430607674941], [-103.89057726589938, 39.734290972314426], [-103.89060633579638, 39.73427586788058], [-103.89063540569119, 39.73426076344786], [-103.8906644755838, 39.734245659016274], [-103.89069529635785, 39.734232876541654], [-103.8907267824275, 39.7342209763597], [-103.89075826849498, 39.73420907617857], [-103.89078975456026, 39.73419717599827], [-103.89082124062335, 39.734185275818795], [-103.89085272668426, 39.73417337564015], [-103.89088421274298, 39.73416147546233], [-103.8909156987995, 39.734149575285336], [-103.89094718485384, 39.734137675109174], [-103.89097866603622, 39.734125767586185], [-103.89100968872452, 39.734113168274156], [-103.89104071141061, 39.73410056896303], [-103.89107173409448, 39.7340879696528], [-103.89110275677614, 39.73407537034347], [-103.89113377945557, 39.73406277103504], [-103.89116488895465, 39.73405030251046], [-103.89119635302575, 39.73403836809147], [-103.89122781709466, 39.734026433673314], [-103.89125928116138, 39.734014499255984], [-103.89129074522592, 39.734002564839486], [-103.89132220928826, 39.73399063042382], [-103.8913536733484, 39.73397869600898], [-103.89138513740636, 39.733966761594985], [-103.89141897690632, 39.7339628916864], [-103.89145405721156, 39.733963234244435], [-103.89148913751688, 39.73396357680247], [-103.89152421782231, 39.73396391936051], [-103.89155929812782, 39.73396426191855], [-103.89159437843341, 39.73396460447659], [-103.89162945873909, 39.73396494703463], [-103.89166453904485, 39.73396528959267], [-103.8916996193507, 39.733965632150706], [-103.89173469965664, 39.733965974708745], [-103.89176977996266, 39.73396631726679], [-103.89180486026878, 39.73396665982484], [-103.89183994057498, 39.73396700238288], [-103.89187502088127, 39.73396734494093], [-103.89191010118765, 39.733967687498975], [-103.89194518149411, 39.73396803005702], [-103.89198026180065, 39.73396837261507], [-103.89201534210729, 39.73396871517311], [-103.892050422414, 39.73396905773116], [-103.89208550272082, 39.73396940028921], [-103.89212058302772, 39.733969742847265], [-103.8921556633347, 39.73397008540532], [-103.89219074364178, 39.73397042796337], [-103.89222582394893, 39.733970770521424], [-103.89226090425618, 39.73397111307948], [-103.8922959845635, 39.73397145563753], [-103.89233106487093, 39.73397179819558], [-103.89236614517844, 39.73397214075364], [-103.89240122548604, 39.7339724833117], [-103.89243630579372, 39.73397282586976], [-103.89247138610149, 39.73397316842782], [-103.89250646640934, 39.733973510985884], [-103.89254154671728, 39.733973853543944], [-103.8925766270253, 39.733974196102004], [-103.89261170733343, 39.733974538660064], [-103.89264678764164, 39.73397488121813], [-103.89268186794993, 39.7339752237762], [-103.89271694825831, 39.733975566334266], [-103.89275202856678, 39.73397590889233], [-103.89278710887532, 39.7339762514504], [-103.89282218918396, 39.73397659400847], [-103.89285726949268, 39.733976936566535], [-103.8928923498015, 39.7339772791246], [-103.8929274301104, 39.73397762168267], [-103.8929625104194, 39.733977964240744], [-103.89299759072847, 39.73397830679882], [-103.89303267103763, 39.73397864935689], [-103.89306775134688, 39.73397899191497], [-103.89310283165621, 39.73397933447304], [-103.89313791196562, 39.733979677031115], [-103.89317299227514, 39.73398001958919], [-103.89320807258474, 39.733980362147264], [-103.89324315289443, 39.733980704705345], [-103.8932782332042, 39.73398104726343], [-103.89331331351406, 39.73398138982151], [-103.893348393824, 39.73398173237959], [-103.89338347413403, 39.73398207493767], [-103.89341855444415, 39.73398241749575], [-103.89345363475437, 39.733982760053834], [-103.89348871506466, 39.733983102611916], [-103.89352379537505, 39.733983445170004], [-103.89355887568551, 39.73398378772809], [-103.89359395599607, 39.73398413028618], [-103.8936290363067, 39.73398447284427], [-103.89366411661743, 39.73398481540236], [-103.89369919692825, 39.73398515796045], [-103.89373427723916, 39.733985500518536], [-103.89376935755016, 39.733985843076624], [-103.89380443786123, 39.73398618563471], [-103.8938395181724, 39.73398652819281], [-103.89387459848365, 39.733986870750904], [-103.89390967879498, 39.733987213309], [-103.8939447591064, 39.733987555867095], [-103.89397983941792, 39.73398789842519], [-103.89401491972953, 39.73398824098329], [-103.89405000004122, 39.73398858354138], [-103.894085080353, 39.73398892609948], [-103.89412016066485, 39.73398926865758], [-103.8941552409768, 39.733989611215684], [-103.89419032128883, 39.733989953773786], [-103.89422540160096, 39.73399029633189], [-103.89426048191318, 39.73399063888999], [-103.89429556222548, 39.733990981448095], [-103.89433064253787, 39.7339913240062], [-103.89436572285034, 39.7339916665643], [-103.8944008031629, 39.7339920091224], [-103.89443588347554, 39.73399235168051], [-103.89447096378827, 39.73399269423862], [-103.89450604410109, 39.73399303679673], [-103.894541124414, 39.73399337935484], [-103.894576204727, 39.73399372191295], [-103.89461128504009, 39.73399406447106], [-103.89464636535325, 39.73399440702917], [-103.8946814456665, 39.73399474958728], [-103.89471652597985, 39.7339950921454], [-103.89475160629327, 39.733995434703516], [-103.89478668660679, 39.73399577726163], [-103.8948217669204, 39.73399611981975], [-103.8948568472341, 39.73399646237787], [-103.89489192754787, 39.733996804935984], [-103.89492700786174, 39.7339971474941], [-103.89496208817569, 39.73399749005222], [-103.89499716848972, 39.73399783261034], [-103.89503224880386, 39.733998175168466], [-103.89506732911808, 39.73399851772659], [-103.89510240943238, 39.733998860284714], [-103.89513748974677, 39.73399920284284], [-103.89517257006125, 39.73399954540096], [-103.89520765037581, 39.73399988795909], [-103.89524273069046, 39.73400023051721], [-103.89527781100519, 39.734000573075335], [-103.89531289132002, 39.734000915633466], [-103.89534797163493, 39.7340012581916], [-103.89538305194993, 39.73400160074973], [-103.89541813226502, 39.73400194330786], [-103.8954532125802, 39.73400228586599], [-103.89548829289545, 39.73400262842412], [-103.89552337321079, 39.73400297098225], [-103.89555845352622, 39.734003313540384], [-103.89559353384175, 39.73400365609852], [-103.89562861415736, 39.73400399865666], [-103.89566369447306, 39.7340043412148], [-103.89569877478884, 39.73400468377294], [-103.89573385510471, 39.734005026331076], [-103.89576893542066, 39.734005368889214], [-103.8958040157367, 39.73400571144735], [-103.89583909605284, 39.73400605400549], [-103.89587417636906, 39.734006396563636], [-103.89590925668537, 39.73400673912178], [-103.89594433700177, 39.73400708167993], [-103.89597941731824, 39.73400742423807], [-103.89601449763481, 39.73400776679622], [-103.89604957795146, 39.73400810935436], [-103.8960846582682, 39.73400845191251], [-103.89611973858503, 39.734008794470654], [-103.89615481890195, 39.734009137028806], [-103.89618989921895, 39.73400947958696], [-103.89622497953604, 39.73400982214511], [-103.89626005985322, 39.734010164703264], [-103.89629514017048, 39.73401050726142], [-103.89633022048783, 39.73401084981957], [-103.89636530080527, 39.73401119237772], [-103.8964003811228, 39.734011534935874], [-103.89643546144042, 39.73401187749403], [-103.89647054175812, 39.734012220052186], [-103.8965056220759, 39.734012562610346], [-103.89654070239378, 39.734012905168505], [-103.89657578271174, 39.734013247726665], [-103.89661086302978, 39.734013590284825], [-103.89664594334792, 39.734013932842984], [-103.89668102366615, 39.734014275401144], [-103.89671610398446, 39.7340146179593], [-103.89675118430286, 39.73401496051747], [-103.89678626462134, 39.73401530307563], [-103.89682134493991, 39.7340156456338], [-103.89684056666668, 39.73401583333333]]}}]}